lat;lng;name;code;city;country;address
52.16383;18.83187;APTEKA; 62-641; ADAMIN; Poland;Adamin 41
52.34433;18.66706;APTEKA RODZINNA; 62-620; BABIAK; Poland;plac Wolności 10
52.34417;18.66593;APTEKA POD JEMIOŁĄ; 62-620; BABIAK; Poland;plac Wolności 13
52.43567;16.79778;PUNKT APTECZNY ; 62-081; BARANOWO; Poland;ulica Przemysława
51.22921;18.04283;PUNKT APTECZNY; 63-604; BARANÓW; Poland;ulica Leśna 29
52.2054;16.00571;APTEKA ARONIA; 64-231; BELĘCIN; Poland;Belęcin
53.09974;17.12105;APTEKA ŚW. ŁUKASZA; 89-340; BIAŁOŚLIWIE; Poland;ulica ks. Augustyna Kordeckiego 3
52.53819;16.9441099;APTEKA  RODZINNA; 62-003; BIEDRUSKO; Poland;ulica Poznańska
52.46767;17.1710299;APTEKA VARIA; 62-007; BISKUPICE; Poland;ulica Mieszka I 2
51.90461;18.01331;PUNKT APTECZNY STYLOWY; 62-814; BLIZANÓW; Poland;Blizanów Drugi 54
51.84677;17.07431;PUNKT APTECZNY MEDICA ; 63-820; BODZEWO; Poland;Bodzewo 70A
51.94308;16.47059;PUNKT APTECZNY BOGUSZYN; 63-040; BOGUSZYN; Poland;Boguszyn 1
51.70485;16.7468499;APTEKA POD WAGĄ; 63-940; BOJANOWO; Poland;ulica Dworcowa 20
52.4034;16.1224;APTEKA PANACEUM; 64-305; BOLEWICE; Poland;ulica Świebodzińska 36A
51.91335;17.23743;APTEKA ZIELONA; 63-810; BOREK WIELKOPOLSKI; Poland;ulica Droga Lisia 55
51.91704;17.2435;APTEKA; 63-810; BOREK WIELKOPOLSKI; Poland;Rynek 14
52.2797395;17.0430735;APTEKA DLA CIEBIE; 62-023; BORÓWIEC; Poland;ulica Szkolna 1C
52.2676299;16.13281;APTEKA ELIKSIR; 64-300; BORUJA KOŚCIELNA; Poland;plac Kościelny 9A
52.2668;16.13262;PUNKT APTECZNY MALWA; 64-306; BORUJA KOŚCIELNA; Poland;ulica Wolsztyńska 16
52.19872;17.66008;PUNKT APTECZNY NA  ZDROWIE; 62-307; BORZYKOWO; Poland;ulica Wrzesińska 79
51.90422;16.45154;PUNKT APTECZNY; 64-140; BOSZKOWO; Poland;ulica Dworcowa
51.28567;17.90308;APTEKA POD SŁOŃCEM; 63-640; BRALIN; Poland;ulica Wrocławska 48
52.35349;18.73162;PUNKT APTECZNY ESKULAP; 62-620; BRDÓW; Poland;ulica Braterstwa Broni 23
52.14389;16.89078;PUNKT APTECZNY ŚW. MARCINA; 63-112; BRODNICA; Poland;Brodnica 63
52.10378;18.60433;APTEKA; 62-720; BRUDZEW; Poland;ulica Goleszczyzna 2A
52.09885;18.60557;APTEKA POD WAGĄ; 62-720; BRUDZEW; Poland;plac Wolności 30
51.59407;18.25612;APTEKA; 62-874; BRZEZINY; Poland;ulica 1000-lecia 10
51.5989999;18.26827;PUNKT APTECZNY FAMILIJNY; 62-874; BRZEZINY; Poland;ulica 21 Stycznia
52.01141;16.39502;PUNKT APTECZNY POD AKACJAMI; 64-234; BUCZ; Poland;ulica Kasztanowa 77
52.43939;18.08586;APTEKA ADOLORAN; 62-541; BUDZISŁAW KOŚCIELNY; Poland;ulica Wilczyńska 26
52.88938;16.98133;APTEKA POD ORŁEM; 64-840; BUDZYŃ; Poland;ulica Bugaje
52.88239;16.98101;PUNKT APTECZNY ASPIRYNKA; 64-840; BUDZYŃ; Poland;osiedle Zielone 32
52.89099;16.98507;PUNKT APTECZNY POD ESKULAPEM; 64-840; BUDZYŃ; Poland;ulica Rynkowa 29
52.47026;17.16894;PUNKT APTECZNY APTECZKA; 62-007; BUGAJ; Poland;ulica Sosnowa 3
52.3574399;16.51597;APTEKA POD LWEM; 64-320; BUK; Poland;plac Przemysława 10
52.35754;16.51937;APTEKA ZDROWIE; 64-320; BUK; Poland;plac Stanisława Reszki 2
52.35098;16.52115;APTEKA PRZY POLOMARKECIE; 64-320; BUK; Poland;ulica Dworcowa
52.3528;16.51727;APTEKA CENTRUM; 64-320; BUK; Poland;ulica Tadeusza Kościuszki
51.89307;18.29859;PUNKT APTECZNY POD LWEM; 62-834; CEKÓW; Poland;Ceków 15
51.89284;18.30069;PUNKT APTECZNY POD LWEM; 62-834; CEKÓW; Poland;Ceków 17B
52.5307699;16.6907;PUNKT APTECZNY ANTIDOTUM; 62-090; CEREKWICA; Poland;ulica Szamotulska
52.5560431;16.8442815;APTEKA WITAMINKA; 62-001; CHLUDOWO; Poland;ulica Poznańska 10
52.07143;17.35644;PUNKT APTECZNY PRYMULKA; 63-040; CHOCICZA; Poland;ulica Leśna 8
51.97617;17.86905;APTEKA RETIRO; 63-313; CHOCZ; Poland;ulica Pleszewska 4
51.97454;17.87303;APTEKA ANAFARM; 63-313; CHOCZ; Poland;ulica Tadeusza Kościuszki
52.24912;19.01287;PUNKT APTECZNY MELISANA; 62-652; CHODÓW; Poland;Chodów 1
52.9896;16.91341;APTEKA; 64-800; CHODZIEŻ; Poland;ulica Jagiellońska 5
52.98918;16.91111;APTEKA DBAM O ZDROWIE; 64-800; CHODZIEŻ; Poland;ulica Jagiellońska 22
52.99068;16.91161;APTEKA POD ZŁOTYM LWEM; 64-800; CHODZIEŻ; Poland;ulica Tadeusza Kościuszki 30
52.995;16.91629;APTEKA  DR. MAX; 64-800; CHODZIEŻ; Poland;ulica Stanisława Małachowskiego 2
52.99491;16.91591;APTEKA POD ŁABĘDZIEM; 64-800; CHODZIEŻ; Poland;ulica Ignacego Paderewskiego 10
52.99241;16.91788;APTEKA PRZY RYNKU; 64-800; CHODZIEŻ; Poland;ulica Wojska Polskiego 1
52.9913091;16.9189779;APTEKA CENTRUM; 64-800; CHODZIEŻ; Poland;ulica Wojska Polskiego 20
52.98906;16.91482;APTEKA NA ŻEROMSKIEGO; 64-800; CHODZIEŻ; Poland;ulica Stefana Żeromskiego 26
52.62533;16.21837;APTEKA; 64-412; CHRZYPSKO WIELKIE; Poland;ulica Jeziorna 11
52.21009;17.82903;APTEKA POD MOŹDZIERZEM; 62-404; CIĄŻEŃ; Poland;ulica Wiosny Ludów 24
52.00641;17.47486;PUNKT APTECZNY BRATEK; 63-200; CIELCZA; Poland;ulica Szkolna 1A
51.49157;18.32578;APTEKA; 63-524; CZAJKÓW; Poland;Czajków 7C
52.89417;16.54691;APTEKA OSIEDLOWA; 64-700; CZARNKÓW; Poland;ulica Tadeusza Kościuszki 103A
52.89703;16.5558;APTEKA DBAM O ZDROWIE; 64-700; CZARNKÓW; Poland;ulica Tadeusza Kościuszki 98
52.90452;16.56963;APTEKA POD ŁABĘDZIEM; 64-700; CZARNKÓW; Poland;ulica gen. Władysława Sikorskiego 31
52.90544;16.56706;APTEKA POD ZŁOTYM LWEM; 64-700; CZARNKÓW; Poland;ulica gen. Władysława Sikorskiego 4
52.90431;16.56444;APTEKA POD KASZTANAMI; 64-700; CZARNKÓW; Poland;ulica Tadeusza Kościuszki 8
52.89706;16.55425;APTEKA ARNIKA; 64-700; CZARNKÓW; Poland;ulica Tadeusza Kościuszki 93
52.89889;16.56042;APTEKA  LIPOWA; 64-700; CZARNKÓW; Poland;ulica Wroniecka 74
52.14356;16.76118;APTEKA CZEMPIŃSKA; 64-020; CZEMPIŃ; Poland;Rynek 24
52.1434847;16.7616331;APTEKA POD WAGĄ; 64-020; CZEMPIŃ; Poland;Rynek 26
52.1428;16.76186;APTEKA ASPIRYNKA; 64-020; CZEMPIŃ; Poland;Rynek 9
51.9491982;17.7481715;APTEKA PANACEUM; 63-304; CZERMIN; Poland;Czermin 17
52.42681;17.4938;APTEKA NATURA; 62-250; CZERNIEJEWO; Poland;ulica Miechowa 4
52.42631;17.48854;APTEKA SŁONECZNA; 62-250; CZERNIEJEWO; Poland;ulica Poznańska 2
52.46514;16.98143;APTEKA POD SOKOŁEM; 62-004; CZERWONAK; Poland;ulica Gdyńska 45A
52.45518;16.98447;APTEKA RODZINNA; 62-004; CZERWONAK; Poland;ulica Gdyńska
52.47336;16.99421;APTEKA ŹRÓDLANA; 62-004; CZERWONAK; Poland;ulica Źródlana
52.8387;17.50383;APTEKA RODZINNA; 62-110; DAMASŁAWEK; Poland;ulica Długa 1
52.3041399;16.9550899;APTEKA PRZY KRZYŻU; 61-160; DASZEWICE; Poland;ulica Poznańska 5A
52.11224;18.7538899;PUNKT APTECZNY; 62-660; DĄBIE; Poland;Chełmno 21
52.08728;18.82184;APTEKA NOVA; 62-660; DĄBIE; Poland;plac Adama Mickiewicza 6
52.08833;18.8199;APTEKA; 62-660; DĄBIE NAD NEREM; Poland;ulica 3 Maja
52.0222399;17.67438;PUNKT APTECZNY; 63-210; DOBIESZCZYZNA; Poland;Dobieszczyzna
51.91626;18.6152799;APTEKA STARS; 62-730; DOBRA; Poland;plac Wojska Polskiego 4
51.91248;18.61627;APTEKA ZIELONA; 62-730; DOBRA; Poland;ulica Wiatraki 15
51.86704;17.60241;APTEKA REMEDIUM; 63-330; DOBRZYCA; Poland;ulica Koźmińska 2
51.86216;17.60206;APTEKA MEDICOR; 63-330; DOBRZYCA; Poland;ulica Różana 1
51.98624;17.06547;APTEKA; 63-140; DOLSK; Poland;plac Wyzwolenia 20
51.99027;17.0667;APTEKA NA SKRAJU; 63-140; DOLSK; Poland;ulica Śremskie Przedmieście 6
52.29126;17.35901;PUNKT APTECZNY ZDROWIE; 63-012; DOMINOWO; Poland;ulica Centralna 8
52.38471;16.74453;APTEKA DĄBRÓWKA; 62-070; DOPIEWO; Poland;ulica Parkowa 9
52.31993;16.67945;APTEKA CITO; 62-070; DOPIEWO; Poland;ulica Łąkowa
52.35561;16.67698;APTEKA U ZŁOTEGO ŹRÓDŁA; 62-070; DOPIEWO; Poland;ulica Wyzwolenia 16B
51.41723;18.07817;APTEKA PHARMACON; 63-505; DORUCHÓW; Poland;ulica Kaliska 6
52.42209;16.57173;APTEKA; 64-550; DUSZNIKI; Poland;ulica Powstańców Wielkopolskich 17
52.45143;16.51917;PUNKT APTECZNY CENTRUM ZDROWIA; 64-550; DUSZNIKI; Poland;ulica Szamotulska 7
52.04197;17.76983;APTEKA; 63-308; GIZAŁKI; Poland;ulica Kaliska 23
52.17715;16.7115;PUNKT APTECZNY ŚW. KATARZYNY; 64-020; GŁUCHOWO; Poland;osiedle Dobruckiego 4
52.549841;17.6057362;APTEKA JAGIELLOŃSKA; 62-200; GNIEZNO; Poland;osiedle Jagiellońskie 45
52.54928;17.60601;APTEKA PANACEUM; 62-200; GNIEZNO; Poland;osiedle Jagiellońskie 6
52.53667;17.60117;APTEKA 3 MAJA; 62-200; GNIEZNO; Poland;ulica 3 Maja 3
52.5339699;17.60109;APTEKA CENTRUM; 62-200; GNIEZNO; Poland;ulica Bolesława Chrobrego 33
52.53333;17.59371;APTEKA PRZY ŁUBIEŃSKIEGO-BIS; 62-200; GNIEZNO; Poland;rynek Bednarski
52.53586;17.5798099;APTEKA ARNICA; 62-200; GNIEZNO; Poland;ulica Stefana Czarnieckiego 1F
52.5175;17.57824;APTEKA NA DALKACH; 62-200; GNIEZNO; Poland;ulica Jabłoniowa
52.53802;17.60649;APTEKA; 62-200; GNIEZNO; Poland;ulica Jasna
52.53335;17.59205;APTEKA NA JEZIORNEJ; 62-200; GNIEZNO; Poland;ulica Jeziorna 13A
52.52173;17.61258;APTEKA NA KAWIARACH; 62-200; GNIEZNO; Poland;ulica Kawiary 25
52.5290899;17.55648;APTEKA PRZY POZNAŃSKIEJ; 62-200; GNIEZNO; Poland;ulica Kostrzyńska
52.5349;17.59976;APTEKA DBAM O ZDROWIE; 62-200; GNIEZNO; Poland;ulica ks. Macieja Łubieńskiego 8
52.53292;17.60269;APTEKA NA LECHA; 62-200; GNIEZNO; Poland;ulica Lecha 14
52.53584;17.60118;APTEKA PRZY ŁUBIEŃSKIEGO; 62-200; GNIEZNO; Poland;ulica ks. Macieja Łubieńskiego 1
52.53423;17.59813;APTEKA DOM LEKOW; 62-200; GNIEZNO; Poland;ulica Mieszka I 22
52.53373;17.59773;APTEKA REMEDIUM; 62-200; GNIEZNO; Poland;ulica Moniuszki 1
52.55322;17.61635;APTEKA NA ORCHOLSKIEJ; 62-200; GNIEZNO; Poland;ulica Orcholska 41
52.51854;17.60018;APTEKA NA CYMSA; 62-200; GNIEZNO; Poland;ulica Pawła Cymsa 16
52.56094;17.61253;APTEKA HEUREKA; 62-200; GNIEZNO; Poland;ulica Pałucka 2
52.51224;17.62137;APTEKA LEŚNA; 62-200; GNIEZNO; Poland;ulica Leśna 1
52.54318;17.62158;APTEKA ASPIRYNKA; 62-200; GNIEZNO; Poland;ulica gen. Władysława Sikorskiego 14
52.54116;17.61766;APTEKA; 62-200; GNIEZNO; Poland;ulica Stanisława Staszica 12A
52.53204;17.59628;APTEKA STAROMIEJSKA; 62-200; GNIEZNO; Poland;ulica Warszawska 30
52.53464;17.59537;APTEKA PRZY FARZE; 62-200; GNIEZNO; Poland;ulica Warszawska 40
52.51348;17.6128399;APTEKA PRZY WOLNOŚCI; 62-200; GNIEZNO; Poland;ulica Wiosny Ludów 34
52.5235399;17.60213;APTEKA MEDIFARM; 62-200; GNIEZNO; Poland;ulica Witkowska 23
52.52365;17.59641;APTEKA PRZY WRZESIŃSKIEJ; 62-200; GNIEZNO; Poland;ulica Wrzesińska 28
51.69765;18.13779;APTEKA MELISA; 62-872; GODZIESZE WIELKIE; Poland;ulica Kaliska 10
51.7018;18.1331;APTEKA RETIRO; 62-872; GODZIESZE WIELKIE; Poland;ulica Kaliska 1A
52.24247;18.0966;APTEKA POD ZŁOTĄ WAGĄ; 62-590; GOLINA; Poland;plac Kazimierza Wielkiego
52.24322;18.14968;APTEKA VITA; 62-590; GOLINA; Poland;Kawnice 6
52.2474497;18.093901;APTEKA ZŁOTA; 62-590; GOLINA; Poland;ulica Kolejowa 32
52.24365;18.09763;APTEKA FLORIAŃSKA; 62-590; GOLINA; Poland;ulica Strażacka
52.94014;17.30219;APTEKA OSIEDLOWA; 62-130; GOŁAŃCZ;  12  /  6 ; Poland
52.94403;17.29947;APTEKA RODZINNA; 62-130; GOŁAŃCZ; Poland;ulica Rynek 6
51.84911;17.92954;APTEKA POD PLATANEM; 63-322; GOŁUCHÓW; Poland;ulica Adama Mickiewicza 1A
51.88707;17.00712;APTEKA NASZA; 63-800; GOSTYŃ; Poland;ulica Graniczna 4
51.8803;17.01207;APTEKA ZDROWIE; 63-800; GOSTYŃ; Poland;ulica Kolejowa 12
51.87907;17.0124;APTEKA LIBRA; 63-800; GOSTYŃ; Poland;ulica Kolejowa 31
51.87699;17.01396;APTEKA SALUS; 63-800; GOSTYŃ; Poland;ulica ks. Olejniczaka 7A
51.87906;17.00989;APTEKA HYGIEJA; 63-800; GOSTYŃ; Poland;ulica Łącznikowa 1
51.87882;17.0107399;APTEKA; 63-820; GOSTYŃ; Poland;ulica Powstańców Wielkopolskich 45
51.8830699;17.00602;APTEKA PROMED; 63-800; GOSTYŃ; Poland;ulica Przy Dworcu 4A
51.88619;17.0021;APTEKA STAROGOSTYŃSKA; 63-800; GOSTYŃ; Poland;ulica Starogostyńska 9
51.8793;17.01087;APTEKA; 63-800; GOSTYŃ; Poland;ulica Wincentego Witosa 13
51.88049;16.99687;APTEKA ROMFARM ; 63-800; GOSTYŃ; Poland;ulica Władysława Łokietka 2
52.36687;17.1427;PUNKT APTECZNY WITAMINKA; 63-004; GOWARZEWO; Poland;ulica Siekierecka 24B
51.50755;18.11818;APTEKA POD PELIKANEM; 63-520; GRABÓW NAD PROSNĄ; Poland;ulica Kaliska 19
51.50674;18.11823;APTEKA KLASZTORNA; 63-520; GRABÓW NAD PROSNĄ; Poland;ulica Kaliska 5
51.5071299;18.11848;APTEKA RETIRO; 63-520; GRABÓW NAD PROSNĄ; Poland;ulica Kaliska 4
52.22487;16.52819;PUNKT APTECZNY ARKA; 62-066; GRANOWO; Poland;ulica Kolejowa 7
52.22225;16.52664;APTEKA VITA; 62-066; GRANOWO; Poland;ulica Sportowa 1
52.03898;18.05396;APTEKA POD ZŁOTĄ WAGĄ; 62-580; GRODZIEC; Poland;ulica Główna 34
52.03909;18.05356;APTEKA MEGAFARM; 62-580; GRODZIEC; Poland;ulica Główna 38
52.23239;16.35249;APTEKA CENTRUM LEKÓW; 62-065; GRODZISK WIELKOPOLSKI; Poland;osiedle Wojska Polskiego
52.23239;16.35249;APTEKA OSIEDLOWA; 62-065; GRODZISK WIELKOPOLSKI; Poland;osiedle Wojska Polskiego
52.22558;16.36235;NOWA APTEKA IM. KRÓLOWEJ JADWIGI; 62-065; GRODZISK WIELKOPOLSKI; Poland;ulica Bukowska 10
52.22787;16.36918;APTEKA RODZINNA; 62-065; GRODZISK WIELKOPOLSKI; Poland;ulica Rudolfa Mossego 23
52.22783;16.37047;APTEKA PASCAL; 62-065; GRODZISK WIELKOPOLSKI; Poland;ulica Powstańców Chocieszyńskich 15
52.22715;16.37061;APTEKA PRZY RONDZIE; 62-065; GRODZISK WIELKOPOLSKI; Poland;ulica Powstańców Chocieszyńskich 17
52.22337;16.36935;APTEKA NA POZNAŃSKIEJ; 62-065; GRODZISK WIELKOPOLSKI; Poland;ulica Poznańska 18
52.2262;16.36656;APTEKA NA SZEROKIEJ; 62-065; GRODZISK WIELKOPOLSKI; Poland;ulica Szeroka 27
52.2248;16.36649;APTEKA ARNIKA; 62-065; GRODZISK WIELKOPOLSKI; Poland;ulica Żydowska 11
52.43298;16.53052;PUNKT APTECZNY REMEDIUM; 64-553; GRZEBIENISKO; Poland;ulica Lipowa 4
52.20163;18.73144;APTEKA POD ZŁOTYM TYGIELKIEM; 62-640; GRZEGORZEW; Poland;ulica Kolska 6
52.044683;18.3666303;PUNKT APTECZNY TWOJE LEKI 2; 62-740; GRZYMISZEW; Poland;ulica Konińska 6
52.35142;17.3291499;APTEKA REMEDIUM; 62-025; GUŁTOWY; Poland;ulica Kasztanowa 1
51.65403;18.32713;PUNKT APTECZNY LAWENDA; 62-862; IWANOWICE; Poland;plac ks. Augustyna Kordeckiego 14
52.20538;16.20473;PUNKT APTECZNY CENTRUM; 64-308; JABŁONNA; Poland;ulica Kościelna 14
53.16698;16.59831;PUNKT APTECZNY W JARACZEWIE; 64-930; JARACZEWO; Poland;Jaraczewo 2A
51.96505;17.2953;APTEKA ZDROWIE; 63-233; JARACZEWO; Poland;ulica Kolejowa 18
51.96162;17.50574;APTEKA BRATEK; 63-200; JAROCIN; Poland;osiedle Konstytucji 3 Maja 30
51.96854;17.50355;APTEKA  ASPIRYNKA; 63-200; JAROCIN; Poland;ulica gen. Józefa Hallera 14
51.97016;17.49815;APTEKA DBAM O ZDROWIE; 63-200; JAROCIN; Poland;ulica Tadeusza Kościuszki
51.9702;17.49986;APTEKA STYLOWA; 63-200; JAROCIN; Poland;ulica Ignacego Paderewskiego 3A
51.99346;17.52888;APTEKA PRZY POWSTAŃCÓW WIELKOPOLSKICH; 63-200; JAROCIN; Poland;ulica Powstańców Wielkopolskich
51.97185;17.5016;APTEKA ŚW. MARCIN; 63-200; JAROCIN; Poland;ulica Rynek 13
52.0242;17.46518;APTEKA POD ZEGAREM; 63-200; JAROCIN; Poland;ulica Rynek 14
52.00314;17.4882;MEDIQ APTEKA; 63-200; JAROCIN; Poland;ulica Henryka Sienkiewicza 1A
51.96881;17.50444;APTEKA PRZYJAZNA; 63-200; JAROCIN; Poland;ulica Śródmiejska 32
51.97511;17.50767;APTEKA BRATEK; 63-200; JAROCIN; Poland;ulica św. Ducha 30A
51.96581;17.50837;APTEKA CENTRUM; 63-200; JAROCIN; Poland;ulica Wojska Polskiego 44
51.91467;17.48144;APTEKA CONVALLARIA; 63-200; JAROCIN; Poland;ulica Wolności 7
51.97141;17.50063;APTEKA WITAMINKA; 63-200; JAROCIN; Poland;ulica Wrocławska 9
53.4197599;16.82245;APTEKA W PRZYCHODNI; 64-915; JASTROWIE; Poland;ulica 1 Maja 11
53.41954;16.81735;APTEKA PRZY KAMIENNYM DOMU; 64-915; JASTROWIE; Poland;ulica Marii Konopnickiej 71
53.4218199;16.81812;APTEKA POD WAGĄ; 64-915; JASTROWIE; Poland;ulica Michała Roli Żymierskiego 14
51.84522;18.03799;PUNKT APTECZNY MEDYKON; 62-812; JASTRZĘBNIKI; Poland;Jastrzębniki 73A
51.99774;16.85251;PUNKT APTECZNY BRATEK; 64-010; JERKA; Poland;ulica 3 Maja 7
52.46915;17.17109;APTEKA PANACEUM; 62-007; JERZYKOWO; Poland;plac Piastowski
51.64945;17.16828;APTEKA POD ORŁEM  II; 63-930; JUTROSIN; Poland;ulica Adama Mickiewicza 8A
51.65412;17.1698;APTEKA POD ORŁEM; 63-930; JUTROSIN; Poland;Rynek 8
51.6526596;17.1689913;APTEKA RODZINNA; 63-930; JUTROSIN; Poland;ulica Wrocławska 6
53.10412;16.87851;APTEKA; 64-810; KACZORY; Poland;ulica Pilska 2
51.74673;18.05553;APTEKA ARNICA; 62-800; KALISZ; Poland;aleja Wojska Polskiego 32
51.7618;18.07782;APTEKA STYLOWA 9; 62-800; KALISZ; Poland;aleja Wojska Polskiego 116
51.7628395;18.0920129;APTEKA IM. A. SCHWEITZERA; 62-800; KALISZ; Poland;plac św. Józefa 1
51.7633171;18.0919469;APTEKA ADONIS-VERNALIS; 62-800; KALISZ; Poland;plac św. Józefa 2
51.7663926;18.0874036;APTEKA BLISKA; 62-800; KALISZ; Poland;ulica 3 Maja 1
51.76674;18.08757;APTEKA STYLOWA 4; 62-800; KALISZ; Poland;ulica 3 Maja 4
51.76415;18.08621;APTEKA OFFICINA SANITATIS; 62-800; KALISZ; Poland;ulica Babina 14
51.7655;18.09016;APTEKA; 62-800; KALISZ; Poland;ulica Babina 4
51.75154;18.07501;APTEKA KALINIEC; 62-800; KALISZ; Poland;ulica Bogumiła i Barbary 8
51.7380697;18.0967178;APTEKA CZĘSTOCHOWSKA; 62-800; KALISZ; Poland;ulica Częstochowska 133
51.76208;18.08927;APTEKA AURA; 62-800; KALISZ; Poland;ulica Główny Rynek 16
51.74692;18.07042;APTEKA DBAM O ZDROWIE; 62-800; KALISZ; Poland;ulica Górnośląska 69
51.75483;18.07994;APTEKA STYLOWA 2; 62-800; KALISZ; Poland;ulica Górnośląska 17
51.75764;18.07395;APTEKA VERBENA I; 62-800; KALISZ; Poland;ulica Graniczna 2
51.75188;18.05932;APTEKA STYLOWA 3; 62-800; KALISZ; Poland;ulica Hanki Sawickiej 1A
51.75031;18.0499699;APTEKA LAWENDA; 62-800; KALISZ; Poland;ulica Hanki Sawickiej 34A
51.75165;18.04905;APTEKA MEDYCZNA; 62-800; KALISZ; Poland;ulica Hanki Sawickiej 42A
51.75177;18.05848;APTEKA  KWIATY POLSKIE; 62-800; KALISZ; Poland;ulica Hanki Sawickiej 7A
51.76375;18.08879;APTEKA; 62-800; KALISZ; Poland;ulica Kanonicka 6
51.77527;18.08248;APTEKA POD LWEM; 62-800; KALISZ; Poland;ulica Mieczysława Karłowicza 4
51.7561;18.09082;APTEKA WODNIK; 62-800; KALISZ; Poland;ulica gen. Kazimierza Pułaskiego 39
51.74822;18.0905099;APTEKA SALUS; 62-800; KALISZ; Poland;ulica Augustyna Kordeckiego 36
51.76157;18.08038;APTEKA ANTYCZNA; 62-800; KALISZ; Poland;ulica Tadeusza Kościuszki 18
51.75424;18.09383;APTEKA KWIATOWA; 62-800; KALISZ; Poland;ulica Kwiatowa 1
51.75236;18.08232;APTEKA PRIMA; 62-800; KALISZ; Poland;ulica Legionów 30/32
51.75137;18078;APTEKA; 62-800; KALISZ; Poland;ulica Legionów 33
51.7532799;18.08214;APTEKA  LIPOWA; 62-800; KALISZ; Poland;ulica Lipowa 29
51.76159;18.10408;APTEKA WODNIK  BIS; 62-800; KALISZ; Poland;ulica Łódzka 32
51.7694426;18.078532;EURO APTEKA; 62-800; KALISZ; Poland;ulica Majkowska 28
51.76952;18.08072;APTEKA STYLOWA 8; 62-800; KALISZ; Poland;ulica Majkowska 17A
51.74874;18.07608;APTEKA  KWIATY POLSKIE; 62-800; KALISZ; Poland;ulica Marii Konopnickiej 2/4
51.76618;18.08541;APTEKA ZDROWIE ; 62-800; KALISZ; Poland;ulica Nowy Rynek 6
51.7551;18.08711;APTEKA STYLOWA 5; 62-800; KALISZ; Poland;ulica Nowy Świat 16
51.74642;18.06312;APTEKA DBAM O ZDROWIE; 62-800; KALISZ; Poland;ulica Podmiejska 20
51.7502799;18.0614199;APTEKA OLMED; 62-800; KALISZ; Poland;ulica Podmiejska 24B
51.7534;18.07687;APTEKA PRZY POLNEJ; 62-800; KALISZ; Poland;ulica Polna 14
51.7534;18.07687;APTEKA STYLOWA 6; 62-800; KALISZ; Poland;ulica Polna 14
51.7676;18.05118;INTER-APTEKA; 62-800; KALISZ; Poland;ulica Poznańska
51.75298;18.06441;APTEKA NA DOBRE I NA ZŁE; 62-800; KALISZ; Poland;ulica Serbinowska 1A
51.7490499;18.06961;APTEKA STYLOWA 10; 62-800; KALISZ; Poland;ulica Serbinowska 10A
51.75874;18.08471;APTEKA ROGATKA; 62-800; KALISZ; Poland;ulica Śródmiejska 30
51.75843;18.08489;APTEKA ŚRÓDMIEJSKA; 62-800; KALISZ; Poland;ulica Śródmiejska 32
51.76184;18.08746;APTEKA ALOES; 62-800; KALISZ; Poland;ulica Śródmiejska 19
51.75986;18.08542;APTEKA STYLOWA; 62-800; KALISZ; Poland;ulica Śródmiejska 33
51.7407992;18.0807831;APTEKA VERBENA; 62-800; KALISZ; Poland;ulica Tatrzańska 29
51.77453;18.08986;APTEKA RETIRO; 62-800; KALISZ; Poland;ulica Zjazd 23
52.16364;16.45938;APTEKA KOSMA I DAMIAN; 64-061; KAMIENIEC; Poland;ulica Główna 28
52.16246;16.45422;APTEKA; 64-061; KAMIENIEC; Poland;ulica Handlowa 16
51.95852;16.16328;PUNKT APTECZNY KONWALIA; 64-234; KASZCZOR; Poland;ulica Cysterska 1
51.9384;18.53601;APTEKA STARS; 62-704; KAWĘCZYN; Poland;Kowale Pańskie 57A
51.9385627;18.5349823;APTEKA ZIELONA; 62-704; KAWĘCZYN; Poland;Kowale Pańskie 53
52.34013;18.0683599;PUNKT APTECZNY RADIX; 62-530; KAZIMIERZ BISKUPI; Poland;Dobrosołowo 62
52.3128;18.1667;APTEKA ZŁOTA; 62-530; KAZIMIERZ BISKUPI; Poland;plac Wolności 9
52.3130916;18.1660645;PUNKT APTECZNY ; 62-530; KAZIMIERZ BISKUPI; Poland;ulica Golińska 1
52.29612;18.1623899;APTEKA GEMINI; 62-530; KAZIMIERZ BISKUPI; Poland;ulica Węglewska
52.51283;16.5854;APTEKA PANACEUM; 64-530; KAŹMIERZ; Poland;ulica Jana Pawła II 11
52.5150099;16.58674;APTEKA ESKULAP; 64-530; KAŹMIERZ WIELKOPOLSKI; Poland;ulica Elizy Orzeszkowej 4
51.86183;16.6927999;APTEKA SŁONECZNA; 64-113; KĄKOLEWO; Poland;ulica Rydzyńska 5
52.04791;16.10085;PUNKT APTECZNY MELISANA; 64-223; KĘBŁOWO; Poland;ulica Stradyńska 4
51.32539;18.02439;PUNKT APTECZNY; 63-600; KĘPNO; Poland;Myjomice 98
51.2776799;17.97634;APTEKA NA KOPIE; 63-600; KĘPNO; Poland;osiedle Kopa 1
51.28151;17.98658;APTEKA CENTRUM; 63-600; KĘPNO; Poland;ulica Władysława Broniewskiego 2A
51.27839;17.98331;APTEKA NOWA DANUTA NAROWSKA; 63-600; KĘPNO; Poland;ulica ks. Piotra Wawrzyniaka 38
51.27899;17.98368;APTEKA NA DOBRE I NA ZŁE; 63-600; KĘPNO; Poland;ulica ks. Mariana Magnuszewskiego
51.2789;17.98821;APTEKA POD ORŁEM; 63-600; KĘPNO; Poland;Rynek 16
51.27938;17.98635;APTEKA; 63-600; KĘPNO; Poland;Rynek 37
51.2733;17.98642;APTEKA POD KASZTANAMI; 63-600; KĘPNO; Poland;ulica Henryka Sienkiewicza 48
51.2881966;17.9934926;APTEKA ŚW. MAKSYMILIANA; 63-600; KĘPNO; Poland;ulica Solidarności 18
51.28122;17.98974;APTEKA NA ZDROWIE; 63-600; KĘPNO; Poland;ulica Warszawska 30
51.2822;17.99146;APTEKA; 63-600; KĘPNO; Poland;ulica Warszawska 44
52.49848;16.76807;APTEKA KIERSKA; 62-090; KIEKRZ; Poland;ulica Kierska
52.59048;17.2548;APTEKA ŚW. JANA CHRZCICIELA; 62-280; KISZKOWO; Poland;ulica Dworcowa 20
52.58941;17.25776;PUNKT APTECZNY ; 62-280; KISZKOWO; Poland;ulica Szkolna
52.36963;18.17838;APTEKA ELIXIR; 62-540; KLECZEW; Poland;ulica Strażacka
52.62945;17.4282;APTEKA PRZY BIEDRONCE; 62-270; KŁECKO; Poland;ulica Armii Poznań
52.6286;17.42796;APTEKA; 62-270; KŁECKO; Poland;ulica Słoneczna
52.25554;18.91572;APTEKA ELFARM 5; 62-650; KŁODAWA; Poland;plac Wolności 12
52.24918;18.91218;APTEKA  WITAMINKA; 62-650; KŁODAWA; Poland;ulica Armii Krajowej
52.25;18.9115;APTEKA ELFARM 5; 62-650; KŁODAWA; Poland;ulica Dąbska
52.24768;18.91524;APTEKA MILLENIUM; 62-650; KŁODAWA; Poland;ulica Władysława Kapicy 2
52.25505;18.9148299;APTEKA ESKULAP; 62-650; KŁODAWA; Poland;ulica kard. Stefana Wyszyńskiego 10
51.37735;17.83596;APTEKA RODZINNA; 63-507; KOBYLA GÓRA; Poland;ulica Marii Konopnickiej 1
51.37854;17.83831;PUNKT APTECZNY; 63-507; KOBYLA GÓRA; Poland;plac Wiosny Ludów
51.7177;17.22341;APTEKA BONA; 63-740; KOBYLIN; Poland;ulica Grunwaldzka
51.71447;17.22643;APTEKA POD ORŁEM; 63-740; KOBYLIN; Poland;ulica Wolności 7
52.4471;17.07997;APTEKA PEONIA; 62-006; KOBYLNICA; Poland;ulica Poznańska 113
52.4456599;17.0761;APTEKA BLISKA; 62-006; KOBYLNICA; Poland;ulica Swarzędzka 2
52.21585;17.62305;APTEKA VITA; 62-306; KOŁACZKOWO; Poland;ulica Miłosławska 1
52.20526;18.63675;APTEKA PRIMA; 62-600; KOŁO; Poland;ulica Blizna 26
52.19677;18.64364;APTEKA KOLSKA; 62-600; KOŁO; Poland;ulica 3 Maja 38
52.20156;18.63653;APTEKA ASPIRYNKA; 62-600; KOŁO; Poland;ulica Władysława Broniewskiego 21
52.20587;18.6271999;APTEKA DBAM O ZDROWIE; 62-600; KOŁO; Poland;ulica Kolejowa 3
52.20164;18.64008;APTEKA PRIMA; 62-600; KOŁO; Poland;ulica Niezłomnych 10
52.2020417;18.6386438;APTEKA TOPFARM; 62-600; KOŁO; Poland;ulica Niezłomnych 5A
52.2020417;18.6386438;APTEKA STYLOWA; 62-600; KOŁO; Poland;ulica Niezłomnych 5C
52.20267;18.63167;APTEKA; 62-600; KOŁO; Poland;ulica PCK 6
52.2028899;18.63126;APTEKA BIOS; 62-600; KOŁO; Poland;ulica PCK 8
52.19901;18.6380899;APTEKA CENTRUM; 62-600; KOŁO; Poland;ulica Henryka Sienkiewicza 16
52.19995;18.63806;APTEKA  DR. MAX; 62-600; KOŁO; Poland;ulica Henryka Sienkiewicza 17
52.19365;18.63169;APTEKA STAROMIEJSKA; 62-600; KOŁO; Poland;plac Stary Rynek 13
52.2035;18.64069;APTEKA  KWIATY POLSKIE; 62-600; KOŁO; Poland;ulica Włocławska 12
52.20026;18.63516;APTEKA POD ZEGAREM; 62-600; KOŁO; Poland;ulica Zegarowa 4
52.33645;16.80697;APTEKA PLUS; 62-052; KOMORNIKI; Poland;ulica Pocztowa 6
52.34622;16.7694699;APTEKA; 62-052; KOMORNIKI; Poland;ulica Stawna 7
52.22786;18.25597;APTEKA MED-ALKO; 62-510; KONIN; Poland;aleja 1 Maja 3
52.2101;18.25469;APTEKA ŚRÓDMIEJSKA; 62-510; KONIN; Poland;ulica 3 Maja 15
52.21158;18.2544;APTEKA DOBROFARM; 62-500; KONIN; Poland;plac Wolności 14
52.2105763;18.2525662;APTEKA PRIMA; 62-500; KONIN; Poland;plac Zamkowy 14
52.23135;18.27524;APTEKA PANACEUM; 62-510; KONIN; Poland;ulica 11 Listopada 27
52.23071;18.26817;APTEKA PRIMA; 62-510; KONIN; Poland;ulica 11 Listopada 6
52.21113;18.25461;APTEKA POD LWEM; 62-500; KONIN; Poland;ulica 3 Maja 5
52.20647;18254;APTEKA STAROMIEJSKA; 62-500; KONIN; Poland;ulica 3 Maja 62A
52.2322624;18.2545457;APTEKA GRODZKA; 62-510; KONIN; Poland;ulica Fryderyka Chopina 19
52.2319356;18.2566915;APTEKA STYLOWA; 62-510; KONIN; Poland;ulica Fryderyka Chopina 23B
52.2317337;18.2583465;APTEKA MAGNOLIA; 62-510; KONIN; Poland;ulica Fryderyka Chopina 24
52.23418;18.26135;APTEKA ALBA; 62-510; KONIN; Poland;ulica Fryderyka Chopina 9
52.2299208;18.2507801;APTEKA CENTRUM; 62-510; KONIN; Poland;ulica Dworcowa 15
52.2296677;18.2515106;APTEKA MED-ALKO; 62-510; KONIN; Poland;ulica Dworcowa 8
52.22902;18.25251;APTEKA PANACEUM; 62-510; KONIN; Poland;ulica Energetyka 6B
52.1980744;18.2389745;APTEKA NA WZGÓRZU; 62-504; KONIN; Poland;ulica Józefa Piłsudskiego 2
52.2360569;18.2492477;APTEKA VALERIANA; 62-510; KONIN; Poland;ulica Karola Szymanowskiego 1
52.2323757;18.2077114;APTEKA PINI PLUS; 62-510; KONIN; Poland;ulica Kazimierza Wielkiego 1A
52.23294;18.21443;APTEKA KONWALIA; 62-502; KONIN; Poland;ulica Konwaliowa 14
52.2096549;18.2563612;APTEKA FAMILIJNA; 62-500; KONIN; Poland;ulica Kościelna 3
52.31658;18.29131;APTEKA  ŁĘŻYŃSKA; 62-510; KONIN; Poland;ulica Łężyńska
52.2886695;18.2567349;APTEKA; 62-505; KONIN; Poland;ulica Muzealna 1
52.237;18.25421;APTEKA HEUREKA; 62-510; KONIN; Poland;ulica Ignacego Paderewskiego
52.22732;18.2566;APTEKA PINI PLUS; 62-510; KONIN; Poland;ulica Powstańców Wielkopolskich 7
52.2327718;18.2103483;VALERIANA-MARCHE; 62-510; KONIN; Poland;ulica Poznańska 176
52.23363;18.20198;APTEKA PRZY POLOMARKECIE; 62-510; KONIN; Poland;ulica Poznańska
52.22813;18.2713;APTEKA MED-ALKO; 62-510; KONIN; Poland;ulica Przyjaźni 3
52.2333949;18.2801169;APTEKA PRIMA; 62-510; KONIN; Poland;ulica Sosnowa 9
52.2321;18.23836;APTEKA DR. MAX; 62-500; KONIN; Poland;ulica Spółdzielców 6
52.2337255;18.220948;APTEKA KASZTANOWA; 62-510; KONIN; Poland;ulica Spółdzielców 31B
52.2349699;18.25986;APTEKA ZATORZE; 62-510; KONIN; Poland;ulica Tadeusza Szeligowskiego 1
52.194479;18.2366565;APTEKA GALENIKA; 62-500; KONIN; Poland;ulica Szpitalna 52
52.20162;18.24497;APTEKA PRIMA; 62-500; KONIN; Poland;ulica Szpitalna 12
52.1948999;18.23976;APTEKA SALUS; 62-504; KONIN; Poland;ulica Szpitalna 45
52.23465;18.25764;APTEKA  KWIATY POLSKIE; 62-510; KONIN; Poland;ulica Stanisława Wiechowicza 4
52.2341399;18.2499;APTEKA PRZY POLOMARKECIE; 62-507; KONIN; Poland;ulica Henryka Wieniawskiego
52.2179;18.25221;APTEKA KASZTANOWA; 62-500; KONIN; Poland;ulica Wojska Polskiego 33A
52.2285349;18.2667934;APTEKA PANACEUM; 62-510; KONIN; Poland;ulica kard. Stefana Wyszyńskiego 28
52.2288249;18.2741553;APTEKA FARMAKON; 62-500; KONIN; Poland;ulica kard. Stefana Wyszyńskiego 32
52.2329099;18.27835;APTEKA MEDIFARM; 62-510; KONIN; Poland;ulica Zakole 2A
52.2335;18.27673;APTEKA STYLOWA 3; 62-510; KONIN; Poland;ulica Zakole 3
52.09428;15.91757;PUNKT APTECZNY ELIKSIR; 64-225; KOPANICA; Poland;ulica Zbąszyńska 11
51.94495;18.21606;APTEKA; 62-831; KORZENIEW; Poland;Korzeniew 116
52.39988;17.22606;APTEKA SZMARAGDOWA; 62-025; KOSTRZYN; Poland;ulica Braci Drzewieckich 3
52.39553;17.22619;APTEKA KOSTRZYŃSKA; 62-025; KOSTRZYN; Poland;ulica Dworcowa 16
52.39843;17.2218;APTEKA PRZY CHACIE ; 62-025; KOSTRZYN; Poland;ulica Poznańska 37
52.39804;17.22688;APTEKA; 62-025; KOSTRZYN; Poland;Rynek 14
52.0841;16.64244;APTEKA POD ZŁOTYM MOŹDZIERZEM; 64-000; KOŚCIAN; Poland;aleja Tadeusza Kościuszki 6
52.07809;16.6269;APTEKA ARNICA; 64-000; KOŚCIAN; Poland;osiedle Jagiellońskie 82C
52.07603;16.62984;APTEKA PHARMAKON; 64-000; KOŚCIAN; Poland;osiedle Jagiellońskie 51A
52.08219;16.6320799;APTEKA PIASTOWSKA; 64-000; KOŚCIAN; Poland;osiedle Piastowskie
52.08831;16.64229;APTEKA GRODZKA; 64-000; KOŚCIAN; Poland;ulica ks. Piotra Bączkowskiego 3
52.08928;16.6502899;APTEKA RODZINNA; 64-000; KOŚCIAN; Poland;ulica marsz. Józefa Piłsudskiego 50
52.0556;16.70836;APTEKA ESKULAP; 64-000; KOŚCIAN; Poland;ulica Tadeusza Kościuszki
52.0556;16.70836;APTEKA DBAM O ZDROWIE; 64-000; KOŚCIAN; Poland;ulica Tadeusza Kościuszki
52.08769;16.63895;APTEKA ŚRÓDMIEJSKA; 64-000; KOŚCIAN; Poland;ulica Józefa Ignacego Kraszewskiego 11
52.08044;16.63936;APTEKA NACŁAWSKA; 64-000; KOŚCIAN; Poland;ulica Nacławska 10
52.0859499;16.6448;APTEKA; 64-000; KOŚCIAN; Poland;Rynek 21
52.08641;16.64461;APTEKA; 64-000; KOŚCIAN; Poland;Rynek 28
52.0906499;16.6547899;APTEKA ŚW. ŁUKASZA; 64-000; KOŚCIAN; Poland;ulica Szkolna 54
52.07677;16.6258899;APTEKA DBAM O ZDROWIE; 64-000; KOŚCIAN; Poland;ulica Śmigielska 53A
52.08547;16.64365;APTEKA NA DEPTAKU; 64-000; KOŚCIAN; Poland;ulica Wrocławska 22
52.17268;18.57027;APTEKA VADEMECUM; 62-604; KOŚCIELEC; Poland;ulica Turecka 6A
51.7850899;18.00917;PUNKT APTECZNY; 62-811; KOŚCIELNA WIEŚ; Poland;ulica św. Wawrzyńca 1
51.9180104;17.6478592;APTEKA ESKULAP; 63-220; KOTLIN; Poland;ulica Dworcowa 19
51.91707;17.64757;APTEKA MEDICOR; 63-220; KOTLIN; Poland;ulica Dworcowa
52.4490918;16.9969759;APTEKA Z SERCEM; 62-028; KOZIEGŁOWY; Poland;osiedle Leśne 16B
52.44448;16.9957;APTEKA LEŚNA; 62-028; KOZIEGŁOWY; Poland;ulica Leśna 16
52.44848;16.99519;APTEKA ALBA NR 3; 62-028; KOZIEGŁOWY; Poland;osiedle Leśne
52.4530829;16.9937928;APTEKA ALBA NR 2; 62-028; KOZIEGŁOWY; Poland;osiedle Leśne 2
52.44176;17.00296;APTEKA ALBA NR 1; 62-028; KOZIEGŁOWY; Poland;ulica Piaskowa
52.44672;16.99469;SUB ROSA; 62-028; KOZIEGŁOWY; Poland;ulica Poznańska
52.44837;16.99907;APTEKA PRZY POZNAŃSKIEJ; 62-028; KOZIEGŁOWY; Poland;ulica Poznańska 37
51.82987;17.44783;APTEKA ESKULAP; 63-720; KOŹMIN WIELKOPOLSKI; Poland;ulica Jana Pawła II 17
51.8276899;17.45407;APTEKA KLASZTORNA; 63-720; KOŹMIN WIELKOPOLSKI; Poland;ulica Klasztorna 13
51.82471;17.45262;APTEKA ZAMKOWA; 63-720; KOŹMIN WIELKOPOLSKI; Poland;ulica Krotoszyńska 6
51.82592;17.45313;APTEKA  RYNKOWA; 63-720; KOŹMIN WIELKOPOLSKI; Poland;ulica Stary Rynek 1
51.79815;18.33377;APTEKA POD BLIŹNIĘTAMI; 62-840; KOŹMINEK; Poland;ulica Mikołaja Kopernika 10
51.79903;18.3375999;PUNKT APTECZNY; 62-840; KOŹMINEK; Poland;ulica Tadeusza Kościuszki 3
52.24773;17.08944;APTEKA W RYNKU; 62-035; KÓRNIK; Poland;plac Niepodległości 40
52.23196;17.0958;APTEKA RUMIANKOWA; 62-035; KÓRNIK; Poland;ulica Armii Krajowej 1
52.2498;17.08623;APTEKA ZAMKOWA; 62-035; KÓRNIK; Poland;ulica Poznańska 16
52.25114;17.08468;APTEKA OBOK PRZYCHODNI; 62-035; KÓRNIK; Poland;ulica Poznańska 32
52.24651;17.09193;APTEKA; 62-035; KÓRNIK; Poland;ulica Średzka 2
53.29583;16.9879;APTEKA VERBENA; 77-430; KRAJENKA; Poland;ulica Młyńska
53.29843;16.99662;APTEKA ZDROWIE; 77-430; KRAJENKA; Poland;ulica Władysława Jagiełły 28
52.26301;18.42025;APTEKA NA DĘBICZU; 62-511; KRAMSK; Poland;ulica marsz. Józefa Piłsudskiego
52.26571;18.42516;APTEKA  KRAMSK S.C.; 62-511; KRAMSK; Poland;Kramsk
52.26587;18.42758;APTEKA; 62-511; KRAMSK; Poland;ulica Rynek 3
51.51458;18.22673;APTEKA ZDROWIE; 63-522; KRASZEWICE; Poland;ulica Wieluńska 42
51.77375;16.98532;APTEKA ŚWIAT ZDROWIA; 63-840; KROBIA; Poland;ulica Jutrosińska 1
51.77418;16.98246;APTEKA AMARANTHUS - TYP A; 63-840; KROBIA; Poland;ulica Powstańców Wielkopolskich 134
51.77269;16.97756;APTEKA; 63-840; KROBIA; Poland;ulica Powstańców Wielkopolskich 28
52.22233;16.83204;APTEKA SZAŁWIA; 62-050; KROSNO; Poland;ulica Główna
52.22688;16.8276499;APTEKA GENCJANA; 62-050; KROSNO; Poland;ulica Nektarowa
51.67334;17.43303;APTEKA NOVA 2; 63-700; KROTOSZYN; Poland;ulica Bolewskiego
51.68842;17.43875;APTEKA ALFA; 63-700; KROTOSZYN; Poland;ulica Bolewskiego 8A
51.70708;17.41667;APTEKA PARCELKI; 63-700; KROTOSZYN; Poland;ulica Kazimierza Grudzielskiego 27
51.6956599;17.43863;APTEKA RYNKOWA; 63-700; KROTOSZYN; Poland;ulica Kaliska 2
51.69297;17.43779;APTEKA POD WAGĄ; 63-700; KROTOSZYN; Poland;ulica Tadeusza Kościuszki 9
51.6941;17.43809;APTEKA SŁONECZNA; 63-700; KROTOSZYN; Poland;ulica Tadeusza Kościuszki 3
51.70353;17.43589;APTEKA POD KORONĄ; 63-700; KROTOSZYN; Poland;ulica Masłowskiego 2A
51.7000765;17.4363442;APTEKA NOWA; 63-700; KROTOSZYN; Poland;ulica Adama Mickiewicza 35
51.69778;17.42834;APTEKA ESCULAP; 63-700; KROTOSZYN; Poland;ulica Adama Mickiewicza 2A
51.69514;17.43761;APTEKA STYLOWA; 63-700; KROTOSZYN; Poland;ulica Rynek 26
51.69603;17.43585;APTEKA ŚRÓDMIEJSKA; 63-700; KROTOSZYN; Poland;ulica Rynkowa 1
51.68794;17.43184;APTEKA  ŁĄKOWA; 63-700; KROTOSZYN; Poland;ulica Stanisława Staszica 26B
51.70018;17.4445;APTEKA RODZINNA; 63-700; KROTOSZYN; Poland;ulica Tartaczna 7
51.70312;17.41829;APTEKA RETIRO; 63-700; KROTOSZYN; Poland;ulica Wojciechowskiego 3
51.6938;17.42732;APTEKA NA ZACISZU; 63-700; KROTOSZYN; Poland;ulica Zacisze 14
52.9714;16.66094;APTEKA; 64-850; KRUSZEWO; Poland;ulica Szkolna 2
51.85964;16.8422899;APTEKA ELIXIR; 64-120; KRZEMIENIEWO; Poland;ulica Dworcowa 29A
51.81689;16.75871;APTEKA NASZA; 64-120; KRZEMIENIEWO; Poland;ulica Zielona 10
51.90265;16.44816;APTEKA  LAWENDA; 64-117; KRZYCKO WIELKIE; Poland;ulica Prymasa Andrzeja Krzyckiego 13
52.10824;17.32378;APTEKA ŚW.ANTONIEGO; 63-024; KRZYKOSY; Poland;ulica Główna 31
52.19451;18.43791;APTEKA; 62-513; KRZYMÓW; Poland;ulica Główna 17
51.97767;16.93845;PUNKT APTECZNY REMEDIUM; 64-010; KRZYWIŃ; Poland;Bieżyń 117
51.9608599;16.82284;APTEKA KRZYWIŃSKA; 64-010; KRZYWIŃ; Poland;ulica gen. Dezyderego Chłapowskiego 25
51.96209;16.81811;APTEKA KRZYWIŃSKA; 64-010; KRZYWIŃ; Poland;Rynek 9
52.88036;16.01525;APTEKA  DR. MAX; 64-760; KRZYŻ WIELKOPOLSKI; Poland;plac Zwycięstwa 1
52.887;16.01447;APTEKA PANACEUM; 64-761; KRZYŻ WIELKOPOLSKI; Poland;ulica Adama Mickiewicza 5
52.01799;17.23708;PUNKT APTECZNY GRACJA; 63-130; KSIĄŻ WIELKOPOLSKI; Poland;Mchy 41
52.06058;17.24037;APTEKA ŚW. ŁUKASZA; 63-130; KSIĄŻ WIELKOPOLSKI; Poland;plac Kosynierów 16
52.06147;17.2319299;APTEKA ŚW. DAMIANA; 63-130; KSIĄŻ WIELKOPOLSKI; Poland;ulica Wiosny Ludów 22A
52.36866;16.29908;APTEKA PANACEUM; 64-316; KUŚLIN; Poland;ulica Emilii Sczanieckiej 4
52.36359;16.24899;PUNKT APTECZNY POD LIPAMI; 64-316; KUŚLIN; Poland;ulica Lipowa 2
52.94872;16.51603;APTEKA POD LIPAMI; 64-700; KUŹNICA CZARNKOWSKA; Poland;ulica Wyzwolenia 47
52.555;16.08372;APTEKA  LAMBERTI; 64-420; KWILCZ; Poland;ulica Gumna
52.55027;16.08316;APTEKA; 64-420; KWILCZ; Poland;ulica kard. Stefana Wyszyńskiego 25
52.5554599;16.08243;APTEKA MEDICA; 64-420; KWILCZ; Poland;ulica Powstańców Wielkopolskich 15
52.2093;17.92667;APTEKA ŚW. MIKOŁAJA; 62-406; LĄDEK; Poland;ulica Pyzderska 17
52.20867;17.93037;APTEKA RADIX; 62-406; LĄDEK; Poland;ulica Rynek 26
51.82746;16.5997999;ARCYAPTEKA; 64-100; LESZNO; Poland;aleja Konstytucji 3 Maja 12
51.83251;16.59879;APTEKA DR. MAX; 64-100; LESZNO; Poland;aleja Konstytucji 3 Maja 9
51.84386;16.57082;APTEKA VITA; 64-100; LESZNO; Poland;aleja Zygmunta Krasińskiego 11A
51.83701;16.58146;APTEKA MEDINA; 64-100; LESZNO; Poland;ulica 17 Stycznia 50
51.8378;16.59163;APTEKA POD WAGĄ; 64-100; LESZNO; Poland;ulica 55 Pułku Piechoty 30
51.8378299;16.59187;APTEKA KORONNA; 64-100; LESZNO; Poland;ulica 55 Pułku Piechoty 34
51.84145;16.58427;APTEKA AMPULLA; 64-100; LESZNO; Poland;ulica Bohaterów Westerplatte 7
51.84927;16.57635;APTEKA DOM LEKÓW; 64-100; LESZNO; Poland;ulica Cicha 12
51.84446;16.58697;APTEKA STYLOWA 2; 64-100; LESZNO; Poland;ulica Grunwaldzka 129
51.83662;16.5871299;APTEKA GALENA; 64-100; LESZNO; Poland;ulica Jana Sobieskiego 1
51.8402313;16.5768509;APTEKA POD WAGĄ - MANHATTAN; 64-100; LESZNO; Poland;Aleje Jana Pawła II 16
51.8388599;16.60643;EURO-APTEKA; 64-100; LESZNO; Poland;ulica Jana Kiepury 45
51.84037;16.57502;APTEKA  LESZCZYŃSKA; 64-100; LESZNO; Poland;ulica Leszczyńskich 43
51.8457751;16.5729867;APTEKA; 64-100; LESZNO; Poland;ulica Karola Marcinkowskiego 14
51.844;16.57392;APTEKA; 64-100; LESZNO; Poland;ulica Gabriela Narutowicza 1
51.84499;16.57445;APTEKA STYLOWA; 64-100; LESZNO; Poland;ulica Gabriela Narutowicza 29
51.84544;16.57866;APTEKA; 64-100; LESZNO; Poland;ulica Niepodległości 31
51.84152;16.57008;APTEKA RODZINNA; 64-100; LESZNO; Poland;ulica Nowy Rynek 38
51.86047;16.57286;APTEKA MAXFARM; 64-100; LESZNO; Poland;ulica Poznańska 3
51.84214;16.56913;APTEKA VENTRICULUS; 64-100; LESZNO; Poland;ulica Różana 3
51.84393;16.57459;APTEKA DBAM O ZDROWIE; 64-100; LESZNO; Poland;ulica Rynek 16
51.8441199;16.56948;APTEKA SKARBOWA; 64-100; LESZNO; Poland;ulica Skarbowa 2A
51.8431;16.56869;APTEKA STYLOWA 3; 64-100; LESZNO; Poland;ulica Słowiańska 40
51.84288;16.56963;APTEKA MEDICA; 64-100; LESZNO; Poland;ulica Słowiańska 41
51.8443063;16.5610302;APTEKA TOPFARM; 64-100; LESZNO; Poland;ulica św. Franciszka z Asyżu 2
51.8442999;16.55977;APTEKA TESTA; 64-100; LESZNO; Poland;ulica Święciechowska 9
51.84439;16.57517;APTEKA PRIMA POD ZŁOTYM LWEM; 64-100; LESZNO; Poland;ulica Wolności 30
51.8511;16.56926;APTEKA PRIMA; 64-100; LESZNO; Poland;ulica Zacisze 16
51.8424;16.58354;APTEKA PRIMA; 64-100; LESZNO; Poland;ulica Zwycięstwa 1
51.86548;16.5747;APTEKA ADAMCZAK; 64-100; LESZNO; Poland;ulica Stanisława Żółkiewskiego 2
53.49534;17.24931;APTEKA; 77-420; LIPKA; Poland;ulica Tadeusza Kościuszki 24
51.9178;16.56477;APTEKA ARONIA; 64-111; LIPNO; Poland;ulica Powstańców Wielkopolskich 14
52.11845;18.2391;APTEKA PRYWATNA; 62-571; LISIEC WIELKI; Poland;ulica Długa
51.83229;18.39708;APTEKA RETIRO; 62-850; LISKÓW; Poland;ulica ks. Wacława Blizińskiego 41
51.8311599;18.4017;APTEKA; 62-850; LISKÓW; Poland;ulica Ogrodowa
52.84955;16.52299;APTEKA FAMILIJNA; 64-720; LUBASZ; Poland;ulica Bolesława Chrobrego 33
52.29685;18.80515;PUNKT APTECZNY; 62-632; LUBONIEK; Poland;Luboniek 80
52.34977;16.85999;APTEKI ARNIKA; 62-030; LUBOŃ; Poland;plac Edmunda Bojanowskiego 3
52.34439;16.84976;APTEKA FAR-MIA; 62-030; LUBOŃ; Poland;ulica 11 Listopada 141
52.34588;16.87248;APTEKA NOKI; 62-031; LUBOŃ; Poland;ulica 11 Listopada 28
52.33439;16.8759;APTEKA ŚW.JÓZEFA; 62-030; LUBOŃ; Poland;ulica Jana III Sobieskiego 55A
52.35034;16.87034;APTEKA FAMA-VIT; 62-031; LUBOŃ; Poland;ulica Tadeusza Kościuszki 51
52.32117;16.88109;APTEKA; 62-032; LUBOŃ; Poland;ulica Kręta 9
52.34785;16.89095;APTEKI ARNIKA; 62-030; LUBOŃ; Poland;ulica ks. Streicha 27
52.34951;16.8614;APTEKA DLA CIEBIE; 62-031; LUBOŃ; Poland;ulica ks. Józefa Poniatowskiego 24
52.3432549;16.8830244;APTEKA W PRZYCHODNI; 62-031; LUBOŃ; Poland;ulica Wschodnia 25
52.3433;16.87531;APTEKA ZŁOTY LEK; 62-031; LUBOŃ; Poland;ulica Żabikowska 16
52.34922;16.88064;APTEKA OSIEDLOWA; 62-031; LUBOŃ; Poland;ulica Żabikowska 62
52.34988;16.88083;APTEKA ALGA; 62-031; LUBOŃ; Poland;ulica Żabikowska 66
52.3402699;16.88228;APTEKA NIEZWYKŁA; 62-031; LUBOŃ; Poland;ulica Stefana Żeromskiego
52.76337;16.8222999;PUNKT APTECZNY LAWENDA; 64-603; LUDOMY ; Poland;Ludomy
52.43948;16.62104;APTEKA ŚW. JAKUBA; 62-080; LUSOWO; Poland;ulica Poznańska 6
52.4518;16.17644;APTEKA  IM. POWSTAŃCÓW WIELKOPOLSKICH; 64-310; LWÓWEK; Poland;ulica Powstańców Wielkopolskich
52.4479;16.17841;APTEKA ŚW. OJCA PIO; 64-310; LWÓWEK; Poland;ulica Stefana Wittmanna 19
52.8412099;17.30564;PUNKT APTECZNY; 62-105; ŁEKNO; Poland;ulica Podgórna 4B
51.82312;16.88365;PUNKT APTECZNY ARNIKA; 63-805; ŁĘKA MAŁA; Poland;Łęka Wielka 80
51.21402;18.14351;PUNKT APTECZNY; 63-645; ŁĘKA OPATOWSKA; Poland;ulica Słoneczna 4
53.25829;17.2573;APTEKA POD KORONĄ; 89-310; ŁOBŻENICA; Poland;ulica Sportowa 16
53.26214;17.2555;APTEKA NOWA; 89-310; ŁOBŻENICA; Poland;ulica Złotowska 11A
52.5125645;17.4593021;APTEKA ŚW. MIKOŁAJA; 62-260; ŁUBOWO; Poland;Łubowo 13B
51.9529799;18.3917499;PUNKT APTECZNY ELIXIR; 62-709; MALANÓW; Poland;ulica Południowa 1
51.9535399;18.39486;PUNKT APTECZNY ESKULAP; 62-709; MALANÓW; Poland;ulica Słoneczna
51.95325;18.39253;APTEKA VITA; 62-709; MALANÓW; Poland;ulica Turecka 4A
52.97515;17.09727;APTEKA PRZY POLNEJ; 64-830; MARGONIN; Poland;ulica Polna
52.97173;17.09779;APTEKA PHARMAKON; 64-830; MARGONIN; Poland;Rynek 26
53.09843;17.00425;PUNKT APTECZNY ANNA WIECZOREK; 89-350; MIASTECZKO KRAJEŃSKIE; Poland;ulica Dąbrowskiego 39
51.65549;16.9542499;APTEKA  MAGNOLIA; 63-910; MIEJSKA GÓRKA; Poland;plac Janusza Korczaka
51.65549;16.9542499;APTEKA GÓRECKA; 63-910; MIEJSKA GÓRKA; Poland;plac Janusza Korczaka
51.655;16.95531;APTEKA; 63-910; MIEJSKA GÓRKA; Poland;Rynek 30
52.6664078;17.5063516;APTEKA LIBRA; 62-212; MIELESZYN; Poland;Mieleszyn 11
52.0254765;17.4415444;APTEKA; 63-242; MIESZKÓW; Poland;ulica Dworcowa 63
52.74554;17.33139;APTEKA; 62-290; MIEŚCISKO; Poland;ulica Tadeusza Kościuszki 7
52.60373;15.89162;APTEKA ARNIKA; 64-400; MIĘDZYCHÓD; Poland;ulica 17 Stycznia 28
52.60555;15.89632;APTEKA; 64-400; MIĘDZYCHÓD; Poland;ulica 17 Stycznia 87
52.60613;15.89976;APTEKA; 64-400; MIĘDZYCHÓD; Poland;ulica 17 Stycznia 96
52.60552;15.90896;APTEKA POD KASZTANAMI; 64-400; MIĘDZYCHÓD; Poland;ulica gen. Władysława Sikorskiego 12
52.60119;15.88918;APTEKA TILIA; 64-400; MIĘDZYCHÓD; Poland;ulica marsz. Józefa Piłsudskiego 49
52.606;15.90564;APTEKA MEDICA; 64-400; MIĘDZYCHÓD; Poland;ulica gen. Władysława Sikorskiego 4
52.59964;15.88902;APTEKA MALWA; 64-400; MIĘDZYCHÓD; Poland;ulica Szpitalna 5
51.36388;18.02858;APTEKA ŚW. IDZIEGO; 63-600; MIKORZYN; Poland;Mikorzyn 55A
51.53;17.9678;APTEKA; 63-510; MIKSTAT; Poland;ulica Krakowska 12
51.53082;17.9701;APTEKA OPTIMA; 63-510; MIKSTAT; Poland;ulica Krakowska 4
52.20299;17.48949;APTEKA ŚW. JAKUBA; 62-320; MIŁOSŁAW; Poland;plac Wiosny Ludów
52.2065399;17.48832;APTEKA U ZŁOTEGO ŹRÓDŁA; 62-320; MIŁOSŁAW; Poland;ulica Wrzesińska
52.8107;16.63094;PUNKT APTECZNY CZAJKA; 64-711; MŁYNKOWO; Poland;Młynkowo
52.24574;16.84987;APTEKA NATURA; 62-050; MOSINA; Poland;plac 20 Października 25
52.24611;16.84902;APTEKA STARA APTEKA; 62-050; MOSINA; Poland;plac 20 Października 3
52.2446;16.90621;APTEKA MACIERZANKA; 62-050; MOSINA; Poland;ulica Mostowa 62
52.18224;16.79851;APTEKA NIEZAPOMINAJKA; 62-050; MOSINA; Poland;ulica Dworcowa 2
52.2445;16.85339;APTEKA TARGOWA; 62-050; MOSINA; Poland;ulica Farbiarska 28
52.2414599;16.84779;APTEKA POFARMA; 62-050; MOSINA; Poland;ulica Śremska 1
51.22539;17.9869;APTEKA ASPIRYNKA; 63-611; MROCZEŃ; Poland;Mroczeń 145
52.57541;17.00919;APTEKA VITA-FARM; 62-095; MUROWANA GOŚLINA; Poland;plac Powstańców Wielkopolski
52.56739;16.99498;APTEKA PRZYJAZNA; 62-095; MUROWANA GOŚLINA; Poland;ulica Długa 25
52.56834;16.99361;APTEKA POD ZŁOTYM LWEM; 62-095; MUROWANA GOŚLINA; Poland;ulica Nowy Rynek 14
52.57392;17.00947;APTEKA POD ZEGAREM; 62-095; MUROWANA GOŚLINA; Poland;ulica Poznańska 17
51.95306;18.24494;PUNKT APTECZNY STYLOWY; 62-831; MYCIELIN; Poland;Mycielin 22
52.32125;17.14687;APTEKA NAGRADOWICE; 63-006; NAGRADOWICE; Poland;Nagradowice 11
52.36398;17.41248;APTEKA BETULA; 62-330; NEKLA; Poland;ulica Fryderyka Chopina 43A
52.4639121;17.6805244;APTEKA RÓŻANA; 62-220; NIECHANOWO; Poland;ulica Różana 49
52.38468;16.60442;PUNKT APTECZNY; 64-320; NIEPRUSZEWO; Poland;ulica Starowiejska 16
52.08937;17.40919;APTEKA PHARMAKON; 63-040; NOWE MIASTO; Poland;ulica Poznańska 7
51.71219;17.99446;APTEKA SKAL-FARM; 63-460; NOWE SKALMIERZYCE; Poland;ulica Kaliska 36
51.70995;17.99321;APTEKA PANACEUM; 63-460; NOWE SKALMIERZYCE; Poland;ulica kard. Stefana Wyszyńskiego 8
51.70582;17.98951;APTEKA VADEMECUM; 63-460; NOWE SKALMIERZYCE; Poland;ulica Podkocka 15A
52.32002;16.12146;APTEKA ŚW. ROCHA; 64-300; NOWY TOMYŚL; Poland;osiedle Północ 12
52.31509;16123;APTEKA NA BATOREGO; 64-300; NOWY TOMYŚL; Poland;osiedle Stefana Batorego 52
52.31509;16123;APTEKA POMARAŃCZOWA; 64-300; NOWY TOMYŚL; Poland;osiedle Stefana Batorego 52C
52.31851;16.12679;APTEKA FARMACJA; 64-300; NOWY TOMYŚL; Poland;ulica 3 Stycznia 2
52.32004;16.14454;APTEKA NOVA; 64-300; NOWY TOMYŚL; Poland;ulica Tadeusza Kościuszki 54
52.31714;16.13173;APTEKA CENTRUM; 64-300; NOWY TOMYŚL; Poland;ulica Adama Mickiewicza 2
52.31677;16.1351799;APTEKA W GALERII; 64-300; NOWY TOMYŚL; Poland;ulica Poznańska 12
52.31675;16.13681;APTEKA REMEDIUM; 64-300; NOWY TOMYŚL; Poland;ulica Poznańska 22
52.31838;16.1275799;APTEKA POMARAŃCZOWA 2; 64-300; NOWY TOMYŚL; Poland;ulica Zbąszyńska 2
52.60429;16.76424;PUNKT APTECZNY REMEDIUM; 64-600; OBORNIKI; Poland;Objezierze 7
52.64671;16.8164;APTEKA DBAM O ZDROWIE; 64-600; OBORNIKI; Poland;ulica 11 Listopada 2
52.65225;16.80068;APTEKA  LEŚNA; 64-600; OBORNIKI; Poland;ulica 25 Stycznia
52.65248;16.81987;APTEKA POD WIERZBĄ; 64-600; OBORNIKI; Poland;ulica Edmunda Stefanowicza 33
52.65028;16.8128;APTEKA  DR. MAX; 64-600; OBORNIKI; Poland;ulica marsz. Józefa Piłsudskiego 41
52.64586;16.80963;APTEKA OBORNICKA; 64-600; OBORNIKI; Poland;ulica marsz. Józefa Piłsudskiego 1
52.64985;16.81729;APTEKA; 64-600; OBORNIKI; Poland;ulica Młyńska 8B
52.64906;16.79605;APTEKA; 64-600; OBORNIKI; Poland;ulica Obrzycka 46
52.64499;16.80874;APTEKA DBAM O ZDROWIE; 64-600; OBORNIKI; Poland;ulica Zamkowa 1C
52.07389;16.0482799;APTEKA; 64-211; OBRA; Poland;ulica Powstańców Wielkopolskich
52.70756;16.52748;APTEKA; 64-520; OBRZYCKO; Poland;ulica Edmunda Kruppika 2
51.57159;17.68751;APTEKA ŚW. BARBARY; 63-430; ODOLANÓW; Poland;plac św. Barbary 1
51.57904;17.66;APTEKA GIMNAZJALNA; 63-430; ODOLANÓW; Poland;ulica Gimnazjalna 8
51.59391;17.69216;APTEKA; 63-430; ODOLANÓW; Poland;ulica Krotoszyńska 4
53.53445;16.84986;APTEKA ALCEA; 64-965; OKONEK; Poland;ulica Niepodległości 34A
53.53718;16.85047;APTEKA; 64-965; OKONEK; Poland;ulica Szczecińska 4
52.30865;16.41704;APTEKA CENTRUM LEKÓW; 64-330; OPALENICA; Poland;ulica 27 Grudnia 1
52.308161;16.4033257;APTEKA ŚW. JÓZEFA; 64-330; OPALENICA; Poland;ulica Powstańców Wielkopolskich 2B
52.30482;16417;APTEKA CENTRUM ZDROWIA; 64-330; OPALENICA; Poland;ulica Władysława S. Reymonta
52.309045;16.4120451;APTEKA ŚW. MATEUSZA; 64-330; OPALENICA; Poland;Rynek 22
51.73984;18.21414;APTEKA ZDROWIE; 62-860; OPATÓWEK; Poland;plac Wolności 2
51.7235299;18.15832;PUNKT APTECZNY NAD ZALEWEM; 62-860; OPATÓWEK; Poland;ulica Kaliska 101
51.73858;18.21413;APTEKA; 62-860; OPATÓWEK; Poland;ulica Kościelna 1
51.75263;18.16551;APTEKA ESKULAP; 62-860; OPATÓWEK; Poland;ulica Kościelna 6
52.5073;18.01614;APTEKA POD MOŹDZIERZEM; 62-436; ORCHOWO; Poland;ulica Wyzwolenia 11
52.50638;18.01603;APTEKA ORCHOWSKA; 62-436; ORCHOWO; Poland;ulica Wyzwolenia 23
52.12739;17.47694;APTEKA ARNIKA; 62-322; ORZECHOWO; Poland;ulica Kolejowa
51.90524;16.68496;APTEKA ŚW. PAWŁA; 64-113; OSIECZNA; Poland;ulica Mikołaja Kopernika
51.90335;16.6755;APTEKA OSIECKA; 64-113; OSIECZNA; Poland;Rynek 5
52.29486;18.60497;APTEKA; 62-613; OSIEK MAŁY; Poland;Dęby Szlacheckie 88
53.11818;17.28876;APTEKA PANACEUM ; 89-333; OSIEK NAD NOTECIĄ; Poland;ulica Bohaterów 1A
53.11662;17.29323;PUNKT APTECZNY ; 89-333; OSIEK NAD NOTECIĄ; Poland;ulica Główna 54
53.12012;17.29005;APTEKA ŚW. ŁUKASZA; 89-333; OSIEK NAD NOTECIĄ; Poland;ulica Piękna
52.62804;16446;APTEKA POD KASZTANAMI; 64-560; OSTRORÓG; Poland;ulica Wroniecka 15
52.38158;18.04287;APTEKA; 62-402; OSTROWITE; Poland;ulica Zachodnia 7
51.65458;17.63804;PUNKT APTECZNY; 63-410; OSTRÓW WIELKOPOLSKI; Poland;Daniszyn
51.64018;17.8111;APTEKA MULTI-VIT; 63-400; OSTRÓW WIELKOPOLSKI; Poland;ulica Armii Krajowej 7
51.63955;17.82935;MEDIQ  APTEKA  OPTIMA  III; 63-400; OSTRÓW WIELKOPOLSKI; Poland;ulica Adama Asnyka 3
51.63946;17.79289;APTEKA ASTRA; 63-400; OSTRÓW WIELKOPOLSKI; Poland;ulica Bratnia 35
51.6499388;17.7841992;APTEKA RODZINNA; 63-400; OSTRÓW WIELKOPOLSKI; Poland;ulica Dezyderego Chłapowskiego 81
51.65201;17.7868;APTEKA DROFARM-2; 63-400; OSTRÓW WIELKOPOLSKI; Poland;ulica Czerwonych Kosynierów 1
51.65655;17.80318;APTEKA NA DOBRE I NA ZŁE; 63-400; OSTRÓW WIELKOPOLSKI; Poland;ulica Dembińskiego 20
51.6454;17.81117;APTEKA MULTI-VIT 2; 63-400; OSTRÓW WIELKOPOLSKI; Poland;ulica Głogowska
51.64514;17.81064;APTEKA DBAM O ZDROWIE; 63-400; OSTRÓW WIELKOPOLSKI; Poland;ulica Głogowska 12
51.64952;17.81905;APTEKA NA  KALISKIEJ; 63-400; OSTRÓW WIELKOPOLSKI; Poland;ulica Kaliska 10
51.65763;17.84403;APTEKA BENEFACTOR; 63-400; OSTRÓW WIELKOPOLSKI; Poland;ulica Kaliska 120
51.64861;17.81253;APTEKA; 63-400; OSTRÓW WIELKOPOLSKI; Poland;ulica Kolejowa 15
51.63957;17.80927;APTEKA PARKOWA; 63-400; OSTRÓW WIELKOPOLSKI; Poland;ulica Tadeusza Kościuszki 31
51.65729;17.8196;APTEKA KRÓLOWEJ JADWIGI; 63-400; OSTRÓW WIELKOPOLSKI; Poland;ulica Królowej Jadwigi 50
51.64382;17.82895;APTEKA STYLOWA 2; 63-400; OSTRÓW WIELKOPOLSKI; Poland;ulica ks. kard. Edmunda Dalbora 36
51.65585;17.82462;APTEKA; 63-400; OSTRÓW WIELKOPOLSKI; Poland;ulica Bolesława Limanowskiego 24
51.65359;17.81434;APTEKA VITA; 63-400; OSTRÓW WIELKOPOLSKI; Poland;ulica Marii Konopnickiej 2B
51.65214;17.81518;APTEKA STYLOWA 3; 63-400; OSTRÓW WIELKOPOLSKI; Poland;ulica Marii Konopnickiej 3
51.6566571;17.815525;APTEKA VERA; 63-400; OSTRÓW WIELKOPOLSKI; Poland;ulica Marii Konopnickiej 58
51.63946;17.83076;APTEKA MELISA; 63-400; OSTRÓW WIELKOPOLSKI; Poland;ulica Jana Mertki 13
51.65181;17.81336;MEDIQ  APTEKA  OPTIMA  II; 63-400; OSTRÓW WIELKOPOLSKI; Poland;ulica Raszkowska 32
51.64389;17.83226;APTEKA ARNICA; 63-400; OSTRÓW WIELKOPOLSKI; Poland;ulica ks. Walentego Śmigielskiego 20
51.6448178;17.81128;APTEKA PIGUŁKA; 63-400; OSTRÓW WIELKOPOLSKI; Poland;ulica Targowa 1
51.64889;17.81051;APTEKA PRZY WOLNOŚCI; 63-400; OSTRÓW WIELKOPOLSKI; Poland;ulica Wolności 26
51.64906;17.81575;APTEKA POD ANIOŁEM; 63-400; OSTRÓW WIELKOPOLSKI; Poland;ulica Wrocławska 1
51.64688;17.81492;APTEKA ZDROWIE; 63-400; OSTRÓW WIELKOPOLSKI; Poland;ulica Wrocławska 25
51.64723;17.81469;APTEKA STYLOWA; 63-400; OSTRÓW WIELKOPOLSKI; Poland;ulica Wrocławska 28
51.63973;17.81566;APTEKA  KWIATY POLSKIE; 63-400; OSTRÓW WIELKOPOLSKI; Poland;ulica Wrocławska 81
51.63601;17.80231;APTEKA ZĘBCOWSKA; 63-400; OSTRÓW WIELKOPOLSKI; Poland;ulica Zębcowska
51.42534;17.93049;APTEKA BOREK; 63-500; OSTRZESZÓW; Poland;ulica Ignacego Daszyńskiego 1
51.42939;17.94034;APTEKA DROFARM-3; 63-500; OSTRZESZÓW; Poland;ulica Dworcowa 6
51.42657;17.9305999;APTEKA PRZYJAZNA; 63-500; OSTRZESZÓW; Poland;ulica Walerego Gorgolewskiego 3
51.42662;17.93017;APTEKA ZAMKOWA; 63-500; OSTRZESZÓW; Poland;ulica Walerego Gorgolewskiego
51.4291399;17.9157699;APTEKA JAGIELLOŃSKA; 63-500; OSTRZESZÓW; Poland;ulica Anny Jagiellonki 30
51.42649;17.92638;APTEKA PRIMA; 63-500; OSTRZESZÓW; Poland;ulica Piastowska 1
51.42571;17.93378;APTEKA W RYNKU; 63-500; OSTRZESZÓW; Poland;Rynek 14
51.42692;17.93197;APTEKA POD WAGĄ; 63-500; OSTRZESZÓW; Poland;ulica Zamkowa 4
51.42832;17.92564;APTEKA ZAMKOWA; 63-500; OSTRZESZÓW; Poland;ulica Zamkowa 28
52.56494;16.44912;APTEKA ZDROWIE; 64-551; OTOROWO; Poland;ulica Szamotulska
52.5187;16.97531;APTEKA PARKOWA; 62-005; OWIŃSKA; Poland;ulica Bydgoska 14
52.51263;16.9813699;APTEKA CYSTERSKA; 62-005; OWIŃSKA; Poland;ulica Poprzeczna 4
52.39944;17.15902;PUNKT APTECZNY ; 62-021; PACZKOWO; Poland;ulica Zapłocie 6
51.61873;17.05826;APTEKA; 63-900; PAKOSŁAW; Poland;ulica Parkowa 6
51.61892;17.05896;APTEKA POD WIERZBĄ; 63-920; PAKOSŁAW; Poland;ulica Parkowa 9
52.55338;16.68153;PUNKT APTECZNY VITA; 64-514; PAMIĄTKOWO; Poland;ulica Jeziorna 2
51.82035;16.75805;APTEKA POD ZŁOTĄ PODKOWĄ; 64-122; PAWŁOWICE; Poland;ulica Mielżyńskich
52.18694;16.79751;APTEKA ESKULAP; 62-053; PECNA; Poland;ulica Strażacka
51.27601;17.81091;PUNKT APTECZNY; 63-642; PERZÓW; Poland;Perzów 90
51.75799;17.11727;APTEKA SŁONECZNA; 63-830; PĘPOWO; Poland;plac Cyryla Ratajskiego
51.76178;17.1207299;APTEKA CALAMUS; 63-830; PĘPOWO; Poland;ulica Mariana Orłonia 1A
51.88646;17.07037;APTEKA; 63-820; PIASKI; Poland;ulica Leśna 3
51.8845699;17.0714;APTEKA MEDICA; 63-820; PIASKI; Poland;ulica Warszawska 5
52.12013;17.45069;PUNKT APTECZNY PANACEUM 2; 63-025; PIĘCZKOWO; Poland;ulica Szkolna 18
53.1599855;16.7526161;APTEKA DR. MAX; 64-920; PIŁA; Poland;aleja Powstańców Wielkopolskich 102
53.1622937;16.7569407;APTEKA MIRALEX; 64-920; PIŁA; Poland;aleja Powstańców Wielkopolskich 162
53.1511799;16.73281;APTEKA POD ZŁOTYM LWEM; 64-920; PIŁA; Poland;aleja Wojska Polskiego 20
53.15006;16.7359;APTEKA; 64-920; PIŁA; Poland;plac Zwycięstwa 17
53.147789;16.7364447;MEDIQ APTEKA ŚRÓDMIEJSKA; 64-920; PIŁA; Poland;ulica 1 Maja 8
53.1513599;16.76988;APTEKA DBAM O ZDROWIE; 64-920; PIŁA; Poland;ulica Bydgoska 135
53.14823;16.71585;APTEKA ESKULAP; 64-920; PIŁA; Poland;ulica Elizy Orzeszkowej 18A
53.1502;16.73324;APTEKA DBAM O ZDROWIE; 64-920; PIŁA; Poland;ulica Jana Kilińskiego 2A
53.15348;16.71769;APTEKA KUBUŚ; 64-920; PIŁA; Poland;ulica Kraszewskiego
53.1528955;16.7342317;APTEKA CENTRALNA PIŁA; 64-920; PIŁA; Poland;ulica Kujawska 1D
53.1506;16.75044;APTEKA POD ZŁOTYM LWEM; 64-920; PIŁA; Poland;ulica Ludowa 11A
53.1512699;16.75451;APTEKA  DR. MAX; 64-920; PIŁA; Poland;ulica Ludowa 35
53.1628553;16.7532086;APTEKA POD ZŁOTYM LWEM; 64-920; PIŁA; Poland;ulica Łączna 47
53.1486982;16.7110051;APTEKA POD ZŁOTYM LWEM; 64-920; PIŁA; Poland;ulica Adama Mickiewicza 105
53.14867;16.7284;APTEKA; 64-920; PIŁA; Poland;ulica Stefana Okrzei 14
53.1581857;16.7560951;APTEKA DBAM O ZDROWIE; 64-920; PIŁA; Poland;aleja Powstańców Wielkopolskich 99
53.13621;16.7533;APTEKA DBAM O ZDROWIE; 64-920; PIŁA; Poland;aleja Poznańska 28
53.12155;16.71829;APTEKA POD ZŁOTYM LWEM; 64-920; PIŁA; Poland;ulica Ludwika Rydygiera 1
53.14688;16.73589;APTEKA MELISA; 64-920; PIŁA; Poland;ulica Rynkowa 22
53.17416;16.74994;APTEKA ARNIKA; 64-920; PIŁA; Poland;ulica Wenedów 6A
53.15233;16.71772;APTEKA; 64-920; PIŁA; Poland;aleja Wojska Polskiego 43
53.15233;16.71772;APTEKA ZA STARYM SZPITALEM; 64-920; PIŁA; Poland;aleja Wojska Polskiego 43
53.1464755;16.7163402;APTEKA DBAM O ZDROWIE; 64-920; PIŁA; Poland;ulica Stanisława Wyspiańskiego 33
53.14855;16.72119;MEDIQ APTEKA; 64-920; PIŁA; Poland;ulica Stanisława Żeromskiego 7
51.89631;17.7878;APTEKA DBAM O ZDROWIE; 63-300; PLESZEW; Poland;plac Kościelny 3
51.83402;17.7893;APTEKA; 63-300; PLESZEW; Poland;Sowina Błotna 36A
51.89722;17.7859;APTEKA POD RUMIANKIEM; 63-300; PLESZEW; Poland;ulica Ignacego Daszyńskiego 13
51.8990099;17.76519;APTEKA MEDICOR; 63-300; PLESZEW; Poland;ulica Konstantego I. Gałczyńskiego 1
51.8953599;17.78872;APTEKA PRZY KALISKIEJ; 63-300; PLESZEW; Poland;ulica Kaliska 20A
51.88837;17.77898;APTEKA REMEDIUM; 63-300; PLESZEW; Poland;ulica Kazimierza Wielkiego 11
51.88781;17.77877;APTEKA POD WAGĄ; 63-300; PLESZEW; Poland;ulica Kazimierza Wielkiego 21
51.8983867;17.7661032;APTEKA; 63-300; PLESZEW; Poland;ulica Poznańska 125A
51.89708;17.77878;APTEKA PRO-VITA; 63-300; PLESZEW; Poland;ulica Poznańska 58
51.89596;17.78573;APTEKA DBAM O ZDROWIE; 63-300; PLESZEW; Poland;ulica Rynek 21
51.89182;17.78572;APTEKA GRODZKA; 63-300; PLESZEW; Poland;ulica Henryka Sienkiewicza 43
51.8933282;17.7810525;APTEKA NOVA; 63-300; PLESZEW; Poland;ulica Juliusza Słowackiego 16
51.89777;17.78356;APTEKA MEDICOR; 63-300; PLESZEW; Poland;ulica św. Ducha 4A
52.37068;16.81591;APTEKA W PRZYCHODNI; 62-052; PLEWISKA; Poland;ulica Grunwaldzka 508
52.36835;16.81172;APTEKA PRZYJAZNA; 62-064; PLEWISKA; Poland;ulica Grunwaldzka 517C
52.37234;16.81438;APTEKA FABIANOWSKA; 62-064; PLEWISKA; Poland;ulica Miętowa 5
52.50843;16.25317;APTEKA ŚRÓDMIEJSKA; 62-045; PNIEWY; Poland;ulica Adama Mickiewicza 16
52.51225;16.25392;APTEKA U ZŁOTEGO ŹRÓDŁA; 62-045; PNIEWY; Poland;ulica Międzychodzka 22
52.50889;16.25246;APTEKA ŚW. WAWRZYŃCA; 62-045; PNIEWY; Poland;ulica św. Wawrzyńca 21
52.51352;16.2573599;APTEKA PHARMACON; 62-045; PNIEWY; Poland;ulica Targowa 16
52.4785899;17.28368;APTEKA POD WAGĄ; 62-010; POBIEDZISKA; Poland;ulica Kazimierza Odnowiciela 11
52.46964;17.28151;APTEKA PRZY RYNKU; 62-010; POBIEDZISKA; Poland;ulica Kostrzyńska
52.4756278;17.2812211;APTEKA RODZINNE CENTRUM ZDROWIA; 62-010; POBIEDZISKA; Poland;ulica Królowej Jadwigi 9
52.47556;17.28104;APTEKA  DR. MAX; 62-010; POBIEDZISKA; Poland;ulica Królowej Jadwigi
51.82337;17.23106;APTEKA; 63-860; POGORZELA; Poland;ulica Kotkowiaka 5
52.7963706;16.737916;APTEKA; 64-710; POŁAJEWO; Poland;ulica Obornicka 4
52.79802;16.7372799;APTEKA  LIPOWA; 64-710; POŁAJEWO; Poland;Rynek 12
51.76234;16.80578;APTEKA; 64-125; PONIEC; Poland;ulica Dworcowa 2B
51.76431;16.80692;APTEKA MILENIJNA; 64-125; PONIEC; Poland;ulica Kościelna 3
52.40652;16.92864;APTEKA  MAGICZNA; 61-827; POZNAŃ; Poland;aleja Karola Marcinkowskiego 14
52.43356;16.93389;APTEKA PULS; 60-696; POZNAŃ; Poland;Aleje Solidarności 36
52.4352378;16.929044;APTEKA WIELKOPOLSKA; 61-696; POZNAŃ; Poland;Aleje Solidarności 42
52.34204;16.98749;APTEKA KRZESINY; 61-321; POZNAŃ; Poland;ulica Krzesiny 18A
52.37994;16.95205;APTEKA ALLIUM; 61-381; POZNAŃ; Poland;osiedle Armii Krajowej 98
52.44977;16.91526;APTEKA; 60-681; POZNAŃ; Poland;osiedle Bolesława Chrobrego 118
52.4581537;16.915872;APTEKA SABIDURIA; 60-681; POZNAŃ; Poland;osiedle Bolesława Chrobrego 11
52.45315;16.92407;APTEKA ADAMUS; 60-682; POZNAŃ; Poland;osiedle Bolesława Śmiałego 104
52.4482198;16.9232921;APTEKA EKO; 60-682; POZNAŃ; Poland;osiedle Bolesława Śmiałego 31
52.45837;16.91259;APTEKA PIĄTKOWSKA; 60-681; POZNAŃ; Poland;osiedle Bolesława Chrobrego 101
52.3858;16.9762099;APTEKA NA OSIEDLU CZECHA; 61-289; POZNAŃ; Poland;osiedle Czecha 73
52.38734;16.97964;APTEKA PAMIĄTKOWA; 61-289; POZNAŃ; Poland;osiedle Czecha 79
52.39334;16.94994;APTEKA RODZINNA; 61-227; POZNAŃ; Poland;osiedle Jagiellońskie 12
52.39011;16.95273;APTEKA DLA CIEBIE; 61-222; POZNAŃ; Poland;osiedle Jagiellońskie 121D
52.46351;16.90656;APTEKA DOBRA; 60-688; POZNAŃ; Poland;osiedle Jana III Sobieskiego 103
52.4624;16.91244;APTEKA  WIEDEŃSKA; 60-688; POZNAŃ; Poland;osiedle Jana III Sobieskiego 52
52.43842;16.94145;APTEKA WIELKOPOLSKA; 61-642; POZNAŃ; Poland;osiedle Kosmonautów 104
52.38727;16.97484;APTEKA DBAM O ZDROWIE; 61-298; POZNAŃ; Poland;osiedle Lecha 120
52.44805;16.94348;APTEKA ŁUŻYCKA; 61-616; POZNAŃ; Poland;ulica Łużycka
52.46002;16.90293;APTEKA WIELKOPOLSKA; 60-683; POZNAŃ; Poland;osiedle Marysieńki 25
52.38179;16.96997;APTEKA CONVALLARIA; 61-251; POZNAŃ; Poland;osiedle Orła Białego 103
52.3759299;16.96295;APTEKA ZIELONA; 61-251; POZNAŃ; Poland;osiedle Orła Białego 45
52.37905;16.97009;APTEKA DBAM O ZDROWIE; 61-251; POZNAŃ; Poland;osiedle Orła Białego 75
52.39044;16.95812;APTEKA; 61-208; POZNAŃ; Poland;osiedle Oświecenia 57
52.39647;16.94504;APTEKA WIELKOPOLSKA; 61-688; POZNAŃ; Poland;osiedle Piastowskie 17
52.39474;16.94494;APTEKA NAD WARTĄ; 61-148; POZNAŃ; Poland;osiedle Piastowskie 22
52.3906707;16.946244;APTEKA SERCE RATAJ; 61-156; POZNAŃ; Poland;osiedle Piastowskie 74
52.38953;16.94563;APTEKA PIASTOWSKA; 61-159; POZNAŃ; Poland;osiedle Piastowskie 75
52.42987;16.94138;APTEKA; 61-630; POZNAŃ; Poland;osiedle Pod Lipami 104
52.38895;16.95372;APTEKA ZŁOTA JESIEŃ; 61-215; POZNAŃ; Poland;osiedle Powstań Narodowych 36
52.3897829;17.0028052;APTEKA DOBROFARM; 61-064; POZNAŃ; Poland;osiedle Przemysława 8
52.43128;16.92959;APTEKA VITA-MED; 61-684; POZNAŃ; Poland;osiedle Przyjaźni 125B
52.42962;16.9257;APTEKA PRZYJAZNA; 61-686; POZNAŃ; Poland;osiedle Przyjaźni 132B
52.43015;16.92118;APTEKA WINOGRADZKA; 61-689; POZNAŃ; Poland;osiedle Przyjaźni 141B
52.39282;16.98279;APTEKA POD ZODIAKIEM; 61-245; POZNAŃ; Poland;osiedle Rusa 12
52.38802;16.98419;APTEKA ŚW. KOSMY I DAMIANA; 61-245; POZNAŃ; Poland;osiedle Rusa 57
52.3887799;16.95086;APTEKA; 61-397; POZNAŃ; Poland;osiedle Rzeczypospolitej 6A
52.4568072;16.9217642;APTEKA KRÓLEWSKA; 60-687; POZNAŃ; Poland;osiedle Stefana Batorego 17
52.4633899;16.91843;APTEKA  KWIATY POLNE; 60-687; POZNAŃ; Poland;osiedle Stefana Batorego 79
52.39533;16.97595;APTEKA TYSIĄCLECIA; 61-255; POZNAŃ; Poland;osiedle Tysiąclecia 30
52.43865;16.9400799;APTEKA REMEDIUM; 61-772; POZNAŃ; Poland;osiedle Wichrowe Wzgórze 105
52.44056;16.93512;APTEKA WIELKOPOLSKA; 61-699; POZNAŃ; Poland;osiedle Wichrowe Wzgórze
52.43861;16.93284;APTEKA W PRZYCHODNI; 61-699; POZNAŃ; Poland;osiedle Wichrowe Wzgórze 122
52.43358;16.91072;APTEKA WINIARSKA; 60-665; POZNAŃ; Poland;osiedle Winiary 54
52.4566151;16.9057651;APTEKA U ZŁOTEGO ŹRÓDŁA; 60-694; POZNAŃ; Poland;osiedle Władysława Jagiełły 17
52.44144;16.92272;APTEKA NASZA; 61-653; POZNAŃ; Poland;osiedle Zwycięstwa 108
52.43863;16.9228999;APTEKA WIELKOPOLSKA; 61-646; POZNAŃ; Poland;osiedle Zwycięstwa 110
52.41091;16.93083;O.K. APTEKA; 61-746; POZNAŃ; Poland;plac Wielkopolski 3A
52.40998;16.92761;APTEKA DBAM O ZDROWIE; 61-742; POZNAŃ; Poland;ulica 23 Lutego 18
52.3873;16.8617199;APTEKA ZDROWIE; 60-159; POZNAŃ; Poland;ulica Galileusza 8
52.39187;16.92214;APTEKA ŚW. JERZEGO; 61-546; POZNAŃ; Poland;ulica św. Jerzego 7
52.38332;16.91235;APTEKA WIELKOPOLSKA; 61-485; POZNAŃ; Poland;ulica 28 Czerwca 1956 194
52.3900999;16.91913;EURO-APTEKA; 61-544; POZNAŃ; Poland;ulica 28 Czerwca 1956
52.389631;16.918433;APTEKA WILDECKA; 61-525; POZNAŃ; Poland;ulica 28 Czerwca 1956 138
52.38914;16.91789;APTEKA DOM LEKÓW; 61-485; POZNAŃ; Poland;ulica 28 Czerwca 1956 144
52.3891;16.91817;APTEKA VITAFARM; 61-525; POZNAŃ; Poland;ulica 28 Czerwca 1956
52.3868;16.91606;APTEKA PAMIĄTKOWA; 61-507; POZNAŃ; Poland;ulica 28 Czerwca 1956
52.3686;16.90333;APTEKA DROSERA; 61-437; POZNAŃ; Poland;ulica 28 Czerwca 1956 330
52.35628;16.90429;APTEKA; 61-437; POZNAŃ; Poland;ulica 28 Czerwca 1956 437
52.39168;16.91994;APTEKA PRZY RYNKU WILDECKIM; 61-526; POZNAŃ; Poland;ulica 28 Czerwca 1956 122
52.4030317;16.9586131;APTEKA SUPER-PHARM; 61-131; POZNAŃ; Poland;ulica abp. Antoniego Baraniaka 8
52.42043;16.96845;APTEKA MEDKON; 61-006; POZNAŃ; Poland;ulica Blacharska 2
52.3930999;16.98346;APTEKA NA RUSA; 61-244; POZNAŃ; Poland;ulica Bliźniąt
52.4304634;16.9045397;APTEKA ŚW. DAMIANA; 60-656; POZNAŃ; Poland;ulica Błękitna 7
52.41081;16.83279;APTEKA BAJKOWA; 60-195; POZNAŃ; Poland;ulica Rumcajsa 2A
52.36539;16.90466;APTEKA BUKOWA; 61-445; POZNAŃ; Poland;ulica Bukowa 2A
52.41007;16.88282;APTEKA ADAMUS; 60-397; POZNAŃ; Poland;ulica Bukowska 100
52.41089;16.86206;APTEKA SUPER-PHARM; 60-197; POZNAŃ; Poland;ulica Bukowska 156
52.41089;16.86206;APTEKA DORFARM; 60-197; POZNAŃ; Poland;ulica Bukowska 156
52.47673;16.78616;APTEKA POD ZŁOTĄ WAGĄ; 60-480; POZNAŃ; Poland;ulica Chojnicka 50
52.47752;16.7847;APTEKA VITA-SALUS; 60-480; POZNAŃ; Poland;ulica Chojnicka 58
52.3993899;16.87445;APTEKA SAGITTARIUS; 60-330; POZNAŃ; Poland;ulica Cześnikowska 2
52.41397;16.89705;APTEKA ARNIKA; 60-576; POZNAŃ; Poland;ulica gen. Jana H. Dąbrowskiego 86
52.41076;16.90952;APTEKA PRZY RYNKU JEŻYCKIM; 60-842; POZNAŃ; Poland;ulica Henryka Dąbrowskiego
52.4159999;16.88753;APTEKA DBAM O ZDROWIE; 60-577; POZNAŃ; Poland;ulica gen. Jana H. Dąbrowskiego 140
52.42645;16.85756;APTEKA NA WOLI; 60-406; POZNAŃ; Poland;ulica gen. Jana H. Dąbrowskiego 294
52.41201;16.90576;APTEKA DBAM O ZDROWIE; 60-843; POZNAŃ; Poland;ulica gen. Jana H. Dąbrowskiego 44
52.41266;16.90448;APTEKA SERCE JEŻYC; 60-842; POZNAŃ; Poland;ulica gen. Jana H. Dąbrowskiego 51
52.41307;16.90115;APTEKA SZAROTKA; 60-522; POZNAŃ; Poland;ulica gen. Jana H. Dąbrowskiego 66
52.41387;16.89988;APTEKA AKADEMICKA; 60-529; POZNAŃ; Poland;ulica gen. Jana H. Dąbrowskiego 79
52.4035405;16.9366168;APTEKA VERBENA; 61-848; POZNAŃ; Poland;ulica Długa 1
52.38819;16.8548699;APTEKA PRZY PASAŻU; 60-162; POZNAŃ; Poland;ulica Dobrodzieńska 11
52.4399858;16.9030168;APTEKA WIELKOPOLSKA; 60-631; POZNAŃ; Poland;ulica Dojazd 34
52.4675576;16.9383791;APTEKA RÓŻANY POTOK; 61-606; POZNAŃ; Poland;ulica Romana Drewsa 1
52.4508;16.90753;APTEKA MEDICUS; 60-693; POZNAŃ; Poland;ulica Tomasza Drobnika 47
52.40201;16.91154;APTEKA; 61-801; POZNAŃ; Poland;ulica Dworcowa 1
52.3699299;16.94778;APTEKA PRZYJAZNA; 61-249; POZNAŃ; Poland;ulica Falista 4A
52.3873;16.8617199;APTEKA POMARAŃCZOWA; 60-159; POZNAŃ; Poland;ulica Galileusza 8
52.40481;16.89161;APTEKA ZAKĄTEK; 60-547; POZNAŃ; Poland;ulica Zakątek 4
52.40241;16.9368899;APTEKA PRZYJAZNA; 61-867; POZNAŃ; Poland;ulica Garbary 16
52.40135;16.93587;MEDIQ APTEKA LUDZIE DLA LUDZI; 61-866; POZNAŃ; Poland;ulica Garbary 5
52.40673;16.93755;APTEKA NA GARBARACH; 61-869; POZNAŃ; Poland;ulica Garbary 51
52.40694;16.93796;APTEKA PRZY GROBLI; 61-869; POZNAŃ; Poland;ulica Garbary 52
52.40904;16.9379;APTEKA MEDKON; 61-758; POZNAŃ; Poland;ulica Garbary 71
52.4247141;16.9146675;APTEKA SŁOWIAŃSKA; 60-651; POZNAŃ; Poland;ulica gen. Stanisława Maczka 12
52.38684;16.89021;APTEKA POD NIEDŹWIEDZIEM; 60-205; POZNAŃ; Poland;ulica Głogowska 146
52.395348;16.8997345;EURO APTEKA; 60-740; POZNAŃ; Poland;ulica Głogowska 72
52.39116;16.8957;APTEKA; 60-266; POZNAŃ; Poland;ulica Głogowska 107
52.39098;16.89548;APTEKA DYŻURNA; 60-266; POZNAŃ; Poland;ulica Głogowska 111
52.38955;16.89311;APTEKA  MAGICZNA; 60-243; POZNAŃ; Poland;ulica Głogowska 120
52.3888671;16.8924903;APTEKA FAMILIA; 60-243; POZNAŃ; Poland;ulica Głogowska 132
52.39999;16.90627;APTEKA VERUS; 60-702; POZNAŃ; Poland;ulica Głogowska 29
52.3542599;16.83524;APTEKA  A2; 60-004; POZNAŃ; Poland;ulica Głogowska 432
52.39754;16.90285;APTEKA CENTRUM; 60-738; POZNAŃ; Poland;ulica Głogowska 53
52.42207;16.9738;APTEKA GŁÓWNA; 61-019; POZNAŃ; Poland;ulica Główna 53
52.31312;16.96669;APTEKA GARDENIA; 61-329; POZNAŃ; Poland;ulica Głuszyna 206
52.40931;16.89236;APTEKA DBAM O ZDROWIE; 60-554; POZNAŃ; Poland;ulica Jana Gorczyczewskiego 1
52.3805;16.89635;APTEKA PANORAMA; 60-201; POZNAŃ; Poland;ulica Górecka 30
52.39363;16922;APTEKA POD KORONĄ; 61-567; POZNAŃ; Poland;ulica Górna Wilda 107
52.3968599;16.92447;APTEKA POD KLONAMI; 61-654; POZNAŃ; Poland;ulica Górna Wilda 82
52.39614;16.92468;APTEKA BETULA; 61-563; POZNAŃ; Poland;ulica Górna Wilda 83B
52.40742;16.87571;APTEKA PARACELSUS; 60-335; POZNAŃ; Poland;ulica Grochowska 116
52.40086;16.87622;APTEKA POD KORONĄ; 60-332; POZNAŃ; Poland;ulica Grochowska 48
52.4044237;16.875217;APTEKA SAGITTARIUS; 60-337; POZNAŃ; Poland;ulica Grochowska 83
52.42948;16.93369;APTEKA GRONOWA; 61-655; POZNAŃ; Poland;ulica Gronowa 61
52.40155;16.89768;APTEKA PRZY PALMIARNI; 60-757; POZNAŃ; Poland;ulica Artura Grottgera 5
52.3968622;16.8685587;APTEKA VITA-SALUS; 60-308; POZNAŃ; Poland;ulica Grunwaldzka 106
52.39547;16.86329;APTEKA KAJA; 60-309; POZNAŃ; Poland;ulica Grunwaldzka 138
52.40533;16.89882;APTEKA GRUNWALDZKIE CENTRUM LEKÓW; 60-782; POZNAŃ; Poland;ulica Grunwaldzka 15
52.38823;16.84968;APTEKA VIOLA; 60-166; POZNAŃ; Poland;ulica Grunwaldzka 244
52.40423;16.89478;APTEKA BOTANIQA; 60-783; POZNAŃ; Poland;ulica Grunwaldzka 31C
52.3813;16.83097;APTEKA; 60-169; POZNAŃ; Poland;ulica Grunwaldzka 374
52.39787;16.8701599;APTEKA; 60-313; POZNAŃ; Poland;ulica Grunwaldzka 99
52.40762;16.92096;APTEKA DOM LEKÓW NA GWARNEJ; 61-702; POZNAŃ; Poland;ulica Gwarna 5
52.40792;16.92105;MEDIQ APTEKA MOJA; 61-702; POZNAŃ; Poland;ulica Gwarna 9
52.3837199;16.91823;APTEKA HIBISCUS; 61-493; POZNAŃ; Poland;ulica Hetmańska 104
52.39134;16.8900599;APTEKA ZDROWOTEKA; 60-252; POZNAŃ; Poland;ulica Hetmańska 26
52.3864;16.91293;APTEKA  GREEN POINT; 60-218; POZNAŃ; Poland;ulica Hetmańska 91
52.44851;16.87736;APTEKA HELIANTHUS; 60-461; POZNAŃ; Poland;ulica Horacego 27A
52.41062;16.90807;APTEKA LIBRA; 60-823; POZNAŃ; Poland;ulica Juliusza Słowackiego 26
52.4099347;16.9117496;APTEKA PULS; 60-823; POZNAŃ; Poland;ulica Juliusza Słowackiego 8
52.41034;16.8954999;APTEKA PULS; 60-513; POZNAŃ; Poland;ulica Maksymiliana Jackowskiego 43
52.4043;16.88116;APTEKA NOVA; 60-349; POZNAŃ; Poland;ulica Jana Ostroroga 36
52.36735;16.90496;APTEKA DBAM O ZDROWIE; 61-454; POZNAŃ; Poland;ulica Jaworowa 66
52.36723;16.8959049;APTEKA VERUS; 61-432; POZNAŃ; Poland;ulica Jesionowa 25
52.41453;16.91168;APTEKA ZIELONA; 60-865; POZNAŃ; Poland;ulica Jeżycka 44
52.38463;16.84649;APTEKA JUNIKOWSKA; 60-163; POZNAŃ; Poland;ulica Junikowska 13
52.4399712;16.9061083;APTEKA LUTYCKA; 60-479; POZNAŃ; Poland;ulica Juraszów 7
52.41304;16.91756;APTEKA LEKÓW GOTOWYCH I WETERYNARYJNYCH; 61-707; POZNAŃ; Poland;ulica Karola Libelta 34
52.39799;16.96272;APTEKA AGATOM; 61-131; POZNAŃ; Poland;ulica Katowicka 35
52.3969005;16.9628996;APTEKA AGATOM II; 61-131; POZNAŃ; Poland;ulica Katowicka 55
52.39056;16.86429;APTEKA POD SŁOŃCEM; 60-158; POZNAŃ; Poland;ulica Jana Keplera 1
52.38891;16.91597;APTEKA ŚW. JADWIGI; 61-522; POZNAŃ; Poland;ulica Antoniego Kosińskiego 28
52.41058;16.98609;APTEKA PRZYJAZNA; 61-042; POZNAŃ; Poland;ulica Kostrzyńska 5
52.38586;16.8885599;APTEKA KOSYNIERSKA; 60-432; POZNAŃ; Poland;ulica Kosynierska 6
52.41665;16.90574;APTEKA BAMBERSKA; 60-537; POZNAŃ; Poland;ulica Kościelna 39C
52.4000737;16.9499488;APTEKA WIELKOPOLSKA; 61-141; POZNAŃ; Poland;ulica Kórnicka 24
52.40078;16.9289;APTEKA POD SASANKĄ; 61-893; POZNAŃ; Poland;ulica Krakowska 32
52.41209;16.9034799;EURO-APTEKA; 60-501; POZNAŃ; Poland;ulica Józefa Ignacego Kraszewskiego 3
52.40014;16.9288;APTEKA WASZA; 61-873; POZNAŃ; Poland;ulica Królowej Jadwigi 58A
52.36631;16.93186;APTEKA RÓŻANA; 61-361; POZNAŃ; Poland;ulica Książęca 1A
52.44602;16.9191;APTEKA BOLESŁAWA CHROBREGO; 60-681; POZNAŃ; Poland;osiedle Bolesława Chrobrego
52.35987;16.88034;APTEKA; 61-411; POZNAŃ; Poland;ulica Leszczyńska 170
52.3774299;16.88071;APTEKA  LESZCZYŃSKA; 60-115; POZNAŃ; Poland;ulica Leszczyńska 3
52.4091;16.98569;APTEKA NA WARSZAWSKIM; 61-048; POZNAŃ; Poland;ulica Łomżyńska 3
52.36459;16.90727;APTEKA NA TARASIE; 61-443; POZNAŃ; Poland;ulica Łozowa 92
52.39168;16.90239;APTEKA MEDIQ; 60-728; POZNAŃ; Poland;ulica Józefa Łukaszewicza 34
52.41295;16.96009;APTEKA NA ZAWADACH; 61-129; POZNAŃ; Poland;ulica Stanisława Małachowskiego 27
52.40534;16.8905299;APTEKA MARCELIŃSKA; 60-801; POZNAŃ; Poland;ulica Marcelińska 23
52.40514;16.90036;APTEKA PRZY MATEJKI; 60-766; POZNAŃ; Poland;ulica Jana Matejki 2
52.4003;16.8999099;APTEKA POD DĘBEM; 60-770; POZNAŃ; Poland;ulica Jana Matejki 56
52.42457;16.90477;APTEKA SOŁACKA; 60-617; POZNAŃ; Poland;ulica Mazowiecka 12
52.40932;16.90992;APTEKA; 60-835; POZNAŃ; Poland;ulica Adama Mickiewicza 31
52.40617;16.87727;APTEKA SYNERGIS; 60-371; POZNAŃ; Poland;ulica Międzychodzka 7
52.41305;16.87713;APTEKA MIODOWA; 60-591; POZNAŃ; Poland;ulica Miodowa 4
52.40889;16.99232;APTEKA ŚW. KAMILA; 61-052; POZNAŃ; Poland;ulica Mogileńska 10
52.39389;16.89545;APTEKA MELISSA BIS; 60-239; POZNAŃ; Poland;ulica Franciszka Morawskiego 1
52.3942358;16.8953302;APTEKA MEDKON; 60-239; POZNAŃ; Poland;ulica Franciszka Morawskiego 2B
52.38131;16.86516;APTEKA  DBAM O ZDROWIE; 60-161; POZNAŃ; Poland;ulica Mrągowska 4
52.40621;17.01443;APTEKA PIASTÓW; 61-062; POZNAŃ; Poland;ulica Mścibora 67
52.434;16.82686;APTEKA FARMASOL; 60-443; POZNAŃ; Poland;ulica Muszkowska 1
52.45147;16.9484;APTEKA NARAMOWICKA MGR FARM SABINA HOSER; 61-611; POZNAŃ; Poland;ulica Naramowicka 172
52.45238;16.94817;APTEKA PHARMACON; 61-601; POZNAŃ; Poland;ulica Naramowicka 176
52.43182;16.9451;APTEKA  AKACJOWA; 61-622; POZNAŃ; Poland;ulica Naramowicka 47
52.39521;16.89931;APTEKA ŁAZARSKA; 60-234; POZNAŃ; Poland;ulica A. i W. Niegolewskich 7
52.4068125;16.869647;APTEKA POD WAGĄ; 60-386; POZNAŃ; Poland;ulica Ognik 18
52.36905;16.89924;APTEKA PINIA; 61-471; POZNAŃ; Poland;ulica Opolska 17
52.37085;16.90071;APTEKI ARNIKA; 61-433; POZNAŃ; Poland;ulica Opolska 24
52.39942;16.88269;APTEKA SŁONECZNA; 60-289; POZNAŃ; Poland;ulica Orężna 13
52.36751;16.9121;APTEKA OSINOWA; 61-451; POZNAŃ; Poland;ulica Osinowa 14
52.37183;16.87477;APTEKA; 60-102; POZNAŃ; Poland;ulica Ostatnia 45
52.38171;16.83196;APTEKA OSIEDLOWA; 60-173; POZNAŃ; Poland;ulica Paczkowska 2A
52.3952;16.86973;APTEKA KAJA; 60-279; POZNAŃ; Poland;ulica Macieja Palacza 141
52.392;16.87686;APTEKA PROMIENNA; 60-274; POZNAŃ; Poland;ulica Macieja Palacza 96
52.43589;16.9120199;O. K. APTEKA; 61-693; POZNAŃ; Poland;ulica Piątkowska 161
52.42837;16.91603;APTEKA  MAGICZNA; 60-648; POZNAŃ; Poland;ulica Piątkowska 87A
52.42969;16.91602;APTEKA STUDENCKA; 61-693; POZNAŃ; Poland;ulica Piątkowska 94
52.41095;16.8953;APTEKA WIELKOPOLSKA; 60-533; POZNAŃ; Poland;ulica Polna 40
52.39289;16.89275;APTEKA ALONA; 60-212; POZNAŃ; Poland;ulica Gustawa Potworowskiego 5
52.40448;16.92209;APTEKA KONICZYNKA; 61-895; POZNAŃ; Poland;ulica Powstańców Wielkopolskich 14B
52.40459;16.93091;APTEKA VADEMECUM; 61-885; POZNAŃ; Poland;ulica Półwiejska 5
52.40115;16.92817;EURO APTEKA; 61-888; POZNAŃ; Poland;ulica Półwiejska 42
52.40115;16.92817;APTEKA SUPER-PHARM; 61-888; POZNAŃ; Poland;ulica Półwiejska 42
52.3868099;16.86411;APTEKA U PIOTRA I PAWŁA; 60-142; POZNAŃ; Poland;ulica Promienista 160
52.40355;16.8878;APTEKA; 60-357; POZNAŃ; Poland;ulica Stanisława Przybyszewskiego 49
52.40853;16.92492;APTEKA ARNIKA; 61-728; POZNAŃ; Poland;ulica Franciszka Ratajczaka 45
52.40288;16.8716;APTEKA RYCERSKA; 60-345; POZNAŃ; Poland;ulica Rycerska 35
52.39453;16.89981;APTEKA DLA CIEBIE; 60-781; POZNAŃ; Poland;rynek Łazarski 1
52.39458;16.90011;APTEKA ROSA; 60-731; POZNAŃ; Poland;rynek Łazarski 2
52.39494;16.90224;APTEKA ROSA; 60-731; POZNAŃ; Poland;rynek Łazarski 7
52.45313;16.85032;APTEKA  LITERACKA; 60-468; POZNAŃ; Poland;ulica Rzeszowska 1A
52.44555;16.94038;APTEKA PIOTRA I PAWŁA; 61-615; POZNAŃ; Poland;ulica Sarmacka 15
52.4325;16.95079;APTEKA WIELKOPOLSKA; 61-696; POZNAŃ; Poland;ulica Serbska 7
52.43519;16.8198599;APTEKA KRZYŻOWNIKI; 60-453; POZNAŃ; Poland;ulica Sianowska
52.38599;16.88402;APTEKA POD JEMIOŁĄ; 60-129; POZNAŃ; Poland;ulica Sielska 32
52.36484;17.0098999;APTEKA SZCZEPANKOWO; 61-312; POZNAŃ; Poland;ulica Skibowa 15C
52.36363;17.00824;APTEKA NA SZCZEPANKOWIE; 61-312; POZNAŃ; Poland;ulica Skibowa 11
52.3638;17.00972;APTEKA SKIBOWA; 61-312; POZNAŃ; Poland;ulica Skibowa 16
52.4114999;16.9037599;APTEKA JEŻYCKA; 60-825; POZNAŃ; Poland;ulica Juliusza Słowackiego 50
52.4291399;16.92768;O.K. APTEKA; 61-664; POZNAŃ; Poland;ulica Słowiańska 38H
52.42587;16.91201;APTEKA PRZY SOKOŁA BIS; 60-644; POZNAŃ; Poland;ulica Sokoła 24
52.42633;16.91177;APTEKA NA ZDROWIE; 60-644; POZNAŃ; Poland;ulica Sokoła 26
52.43499;16.90979;APTEKA ARNIKA; 61-696; POZNAŃ; Poland;Aleje Solidarności
52.41263;16.9245899;APTEKA SOLNA; 61-736; POZNAŃ; Poland;ulica Solna 21
52.41512;16.92091;APTEKA; 61-709; POZNAŃ; Poland;ulica Sporna 16
52.36454;16.92781;MEDIQ APTEKA STAROŁĘCKA; 61-341; POZNAŃ; Poland;ulica Starołęcka 79
52.40832;16.93486;APTEKA POD BIAŁYM ORŁEM; 61-772; POZNAŃ; Poland;ulica Stary Rynek 42
52.40816;16.93233;APTEKA POD ZŁOTYM LWEM; 61-772; POZNAŃ; Poland;ulica Stary Rynek 75
52.4555;16.90387;APTEKA MEDKON; 60-446; POZNAŃ; Poland;ulica Franciszka Stróżyńskiego 13
52.4632099;16.90338;APTEKA KRESOWA; 61-680; POZNAŃ; Poland;ulica Franciszka Stróżyńskiego 29
52.4049039;16.931731;APTEKA; 61-845; POZNAŃ; Poland;ulica Strzelecka 2
52.40225;16.93461;APTEKA KALIFARM; 61-846; POZNAŃ; Poland;ulica Strzelecka 33
52.4543899;16.88322;APTEKA REMEDIUM; 60-479; POZNAŃ; Poland;ulica Strzeszyńska 139
52.44887;16.89404;APTEKA Z SERCEM; 60-479; POZNAŃ; Poland;ulica Strzeszyńska 63
52.4095122;16.8721582;APTEKA SŁONECZNA II; 60-391; POZNAŃ; Poland;ulica Swoboda 22
52.4116358;16.8938173;APTEKA PRIMA; 60-552; POZNAŃ; Poland;ulica Augustyna Szamarzewskiego 44
52.41027;16.90129;APTEKA OPTIMA; 60-516; POZNAŃ; Poland;ulica Augustyna Szamarzewskiego 8
52.41326;16.88539;APTEKA  LAWENDA; 60-569; POZNAŃ; Poland;ulica Augustyna Szamarzewskiego
52.4588899;16.88008;APTEKA A I B; 60-462; POZNAŃ; Poland;ulica Szarych Szeregów 12
52.36878;17.00175;APTEKA MELISSA; 61-311; POZNAŃ; Poland;ulica Szczepankowo 57
52.41721;16.88201;APTEKA IM. I. ŁUKASIEWICZA; 60-584; POZNAŃ; Poland;ulica Szpitalna 2
52.38264;16.99473;APTEKA DR ZDROWIE; 61-285; POZNAŃ; Poland;ulica Szwajcarska 14
52.38901;16.99515;APTEKA NASZA; 61-285; POZNAŃ; Poland;ulica Szwajcarska 3
52.37971;16.9838099;APTEKA FRANOWO; 61-285; POZNAŃ; Poland;ulica Szwedzka 6
52.38852;16.87756;APTEKA; 60-128; POZNAŃ; Poland;ulica Piotra Ściegiennego 50
52.38994;16.87466;APTEKA RASZYŃSKA; 60-136; POZNAŃ; Poland;ulica Piotra Ściegiennego 65
52.39975;16.9048;APTEKA PRZY PARKU WILSONA; 60-773; POZNAŃ; Poland;ulica Śniadeckich 1
52.42158;16.97004;APTEKA POD SMOKIEM; 61-011; POZNAŃ; Poland;ulica Średnia 1
52.40604;16.92658;APTEKA FONTANA; 61-804; POZNAŃ; Poland;ulica Święty Marcin 23
52.3717249;16.907145;APTEKA DBAM O ZDROWIE; 61-465; POZNAŃ; Poland;ulica św. Szczepana 7
52.40552;16.92082;APTEKA; 61-818; POZNAŃ; Poland;ulica Stanisława Taczaka 10
52.4297899;16.84875;APTEKA ALGA; 60-413; POZNAŃ; Poland;ulica Tatrzańska 1/5
52.4104;16.9608;APTEKA WASZA - TOMICKIEGO; 61-116; POZNAŃ; Poland;ulica Piotra Tomickiego
52.41228;16.98332;APTEKA ŚW. KAMILA; 61-045; POZNAŃ; Poland;ulica Toruńska 23
52.37013;16.8671599;APTEKA; 60-102; POZNAŃ; Poland;ulica Trzebawska 22
52.4032393;16.8952142;APTEKA UŁAŃSKA; 60-748; POZNAŃ; Poland;ulica Ułańska 19
52.451745;16.9276049;APTEKA NASZA; 61-614; POZNAŃ; Poland;ulica Umultowska 32
52.4094399;16.9683;APTEKA KOMANDORIA; 61-028; POZNAŃ; Poland;ulica Warszawska 47
52.44471;16.88001;APTEKA KONICZYNKA; 60-641; POZNAŃ; Poland;ulica Wergiliusza 60
52.43141;16.80886;APTEKA WICHROWA; 60-449; POZNAŃ; Poland;ulica Wichrowa 1A
52.39499;16.92155;APTEKA NA ZDROWIE; 61-568; POZNAŃ; Poland;ulica Wierzbięcice 36
52.42919;16.9498;APTEKA WILCZAK; 61-623; POZNAŃ; Poland;ulica Wilczak 12
52.42508;16.92709;APTEKA WITAMINA; 61-663; POZNAŃ; Poland;ulica Winogrady 47
52.42483;16.90931;APTEKA AB-LEK; 60-637; POZNAŃ; Poland;ulica Wojska Polskiego 6
52.42967;16.93995;APTEKA  FAMILIJNA; 61-654; POZNAŃ; Poland;ulica Wójtowska 34A
52.40593;16.9326;APTEKA NA STARÓWCE; 61-838; POZNAŃ; Poland;ulica Wrocławska 20
52.3995;16.8941;APTEKA EUROPEJSKA; 60-749; POZNAŃ; Poland;ulica Stanisława Wyspiańskiego 26
52.45141;16.88339;APTEKA ZAKOPIAŃSKA; 60-467; POZNAŃ; Poland;ulica Zakopiańska 66
52.44886;16.88622;APTEKA 36;6°C; 60-474;  UL. ZAKOPIAŃSKA 37; Poland
52.38258;16.94508;APTEKA  ILUMINATA; 61-131; POZNAŃ; Poland;ulica Ludwika Zamenhofa 133
52.43743;16.95436;APTEKA POD JEMIOŁĄ; 61-695; POZNAŃ; Poland;ulica Zdobywców Monte Cassino 54
52.3817499;16.88017;APTEKA NA GÓRCZYNIE; 60-122; POZNAŃ; Poland;ulica Zgoda 30B
52.3843699;16.84459;APTEKA 111; 60-164; POZNAŃ; Poland;ulica Ziębicka 19
52.41111;16.82849;APTEKA ZŁOTOWSKA; 60-189; POZNAŃ; Poland;ulica Złotowska 21
52.39993;16.93511;APTEKA MOJA FARMACJA; 61-846; POZNAŃ; Poland;ulica Strzelecka 48A
52.33245;18.90426;APTEKA NOWA; 62-635; PRZEDECZ; Poland;ulica Tadeusza Kościuszki 2
52.33354;18.89868;APTEKA POD ŁABĘDZIEM; 62-635; PRZEDECZ; Poland;ulica Zamkowa 4
52.00089;16.16706;APTEKA MOCHEŃSKA; 64-234; PRZEMĘT; Poland;ulica 3 Maja 16
52.00511;16.30096;APTEKA AVENA; 64-234; PRZEMĘT; Poland;ulica Jagiellońska 20
52.0049;16.30088;APTEKA ELIKSIR; 64-234; PRZEMĘT; Poland;ulica Jagiellońska 22A
52.43224;16.77605;APTEKA NASZA; 62-081; PRZEŹMIEROWO; Poland;ulica Ogrodowa 14
52.4213499;16.78783;APTEKA STOKROTKA II; 62-081; PRZEŹMIEROWO; Poland;ulica Rynkowa 105
52.42507;16.78578;APTEKA; 62-081; PRZEŹMIEROWO; Poland;ulica Rynkowa
52.42776;16.78415;APTEKA STOKROTKA; 62-081; PRZEŹMIEROWO; Poland;ulica Rynkowa 88
51.50278;17.77225;APTEKA ARNIKA; 63-421; PRZYGODZICE; Poland;Czarnylas 25A
51.54758;17792;PUNKT APTECZNY DROFARM-1; 63-421; PRZYGODZICE; Poland;ulica Ostrowska 9
51.58951;17.82664;APTEKA ŚW. TOMASZA; 63-421; PRZYGODZICE; Poland;ulica Kasztanowa 5
51.98284;18.61253;APTEKA POD SKORPIONEM S.C. ; 62-731; PRZYKONA; Poland;ulica Szkolna
51.77484;16.93706;APTEKA BRATEK; 63-842; PUDLISZKI; Poland;ulica Fabryczna 2
52.27252;16.86119;APTEKA W STARYM DOMU; 62-041; PUSZCZYKOWO; Poland;ulica Dworcowa 22
52.28601;16.85716;APTEKA ALCHEMIA; 62-040; PUSZCZYKOWO; Poland;ulica Kościelna 7
52.26389;16.86853;APTEKA POD PUSZCZYKIEM; 62-041; PUSZCZYKOWO; Poland;ulica Józefa Ignacego Kraszewskiego 11
52.28936;16.85823;APTEKA ŚW. KAMILA; 62-040; PUSZCZYKOWO; Poland;ulica Poznańska 56
52.28661;16.85561;APTEKA VIOLA-FARM; 62-040; PUSZCZYKOWO; Poland;ulica Poznańska 74A
52.16634;17.68579;APTEKA PŁOMIŃSKICH; 62-310; PYZDRY; Poland;ulica Ignacego Daszyńskiego 7
52.16597;17.68762;APTEKA ŚW.JANA PAWŁA II; 62-310; PYZDRY; Poland;ulica Rynek 1
52.0545;16.70674;APTEKA REMEDIUM; 64-000; RACOT; Poland;osiedle 2000
53.44547;16.97884;PUNKT APTECZNY AURUM; 77-400; RADAWNICA; Poland;ulica Młyńska
52.14101;16.27509;APTEKA MODERNA; 62-067; RAKONIEWICE; Poland;ulica Grodziska 13A
52.18457;16.33438;APTEKA CENTRUM; 62-067; RAKONIEWICE; Poland;ulica Ogrodowa 11A
52.1380399;16.27295;APTEKA MODERNA 3; 62-067; RAKONIEWICE; Poland;ulica Pocztowa 3
52.17827;16.32869;APTEKA RODZINNA; 62-067; RAKONIEWICE; Poland;ulica Powstańców Wielkopolskich
51.71908;17.72716;APTEKA RETIRO; 63-440; RASZKÓW; Poland;ulica Jarocińska 3
51.72021;17.73359;APTEKA RODZINNA; 63-440; RASZKÓW; Poland;ulica Koźmińska 20
51.71766;17.7277;APTEKA PARACELSUS; 63-440; RASZKÓW; Poland;ulica Rynek 11
51.61025;16.84214;APTEKA DBAM O ZDROWIE; 63-900; RAWICZ; Poland;ulica 11 Listopada 2A
51.60954;16.85899;APTEKA RAWICKA; 63-900; RAWICZ; Poland;ulica 17 Stycznia 1
51.60962;16.8572099;APTEKA ŚW.TOMASZA; 63-900; RAWICZ; Poland;ulica 3 Maja 1
51.60966;16.85277;APTEKA; 63-900; RAWICZ; Poland;ulica marsz. Józefa Piłsudskiego 2
51.60936;16.85269;APTEKA NOVA 3; 63-900; RAWICZ; Poland;ulica marsz. Józefa Piłsudskiego 3
51.60872;16.8609;APTEKA POD NIEDŹWIEDZIEM; 63-900; RAWICZ; Poland;ulica Klasztorna 10
51.63852;16.85982;APTEKA OSIEDLOWA; 63-900; RAWICZ; Poland;ulica Osiedlowa 6
51.60935;16.85715;APTEKA LAWENDOWA; 63-900; RAWICZ; Poland;ulica Rynek 36
51.63217;16.90871;APTEKA W RYNKU; 63-900; RAWICZ; Poland;rynek Sarnowski 13
51.60316;16.85608;APTEKA LAWENDOWA II; 63-900; RAWICZ; Poland;ulica Henryka Sienkiewicza 28C
51.60472;16.8415399;APTEKA  LAWENDOWA; 63-900; RAWICZ; Poland;ulica Lawendowa
51.60948;16.85626;APTEKA GRODZKA; 63-900; RAWICZ; Poland;ulica Wojska Polskiego 7
52.7522;16.98938;APTEKA ŚW. WITA; 64-610; ROGOŹNO; Poland;ulica II Armii Wojska Polskiego 4A
52.7533;17.0021099;APTEKA SŁONECZNA; 64-610; ROGOŹNO; Poland;plac Powstańców Wielkopolskich 10
52.7508;16.9884;APTEKA NIEZWYKŁA; 64-610; ROGOŹNO; Poland;osiedle Przemysława II 3
52.751;17.0035;APTEKA  POD ORŁEM; 64-610; ROGOŹNO; Poland;ulica Wielka Poznańska 1
52.51159;16.75341;APTEKA ANTIDOTUM; 62-090; ROKIETNICA; Poland;ulica Pocztowa
52.52162;16.6912999;APTEKA; 62-090; ROKIETNICA; Poland;ulica Szamotulska 31
52.51484;16.69588;APTEKA ROKIETNICKA; 62-090; ROKIETNICA; Poland;ulica Szamotulska 5B
52.13218;16.19649;APTEKA ALMA; 62-068; ROSTARZEWO; Poland;ulica Wolsztyńska 29
51.78272;17.50338;APTEKA MEDICA; 63-708; ROZDRAŻEW; Poland;ulica Koźmińska 10
51.77944;17.50538;APTEKA PRIMA; 63-708; ROZDRAŻEW; Poland;ulica Krotoszyńska 9B
51.90719;17.3693;PUNKT APTECZNY ZDROWIE; 63-233; RUSKO; Poland;ulica Koźmińska 7
51.8711399;18.04091;PUNKT APTECZNY POD ANIOŁEM; 62-813; RYCHNÓW; Poland;Rychnów 25A
51.14551;17.8479199;APTEKA; 63-630; RYCHTAL; Poland;Rynek 7
52.07081;18166;APTEKA MEGAFARM; 62-570; RYCHWAŁ; Poland;plac Wolności 2
52.07102;18.16485;APTEKA; 62-570; RYCHWAŁ; Poland;ulica Konińska 13
52.0713;18.1649299;APTEKA POD ZŁOTĄ WAGĄ; 62-570; RYCHWAŁ; Poland;ulica Konińska 19
52.81416;16.8335;APTEKA; 64-630; RYCZYWÓŁ; Poland;ulica Czarnkowska 37
52.80905;16.83374;APTEKA SANITAS; 64-630; RYCZYWÓŁ; Poland;ulica Kolejowa 11
52.81016;16.83506;APTEKA NOWA; 64-630; RYCZYWÓŁ; Poland;ulica Kolejowa
51.78548;16.66717;APTEKA ŚW. ANNY; 64-130; RYDZYNA; Poland;ulica Konstytucji 3 Maja 6
51.7859399;16.66698;APTEKA NOVA; 64-130; RYDZYNA; Poland;Rynek 24
52.19863;18.15525;APTEKA BENEFARM; 62-586; RZGÓW; Poland;ulica Konińska 19E
52.19095;18.13669;PUNKT APTECZNY; 62-586; RZGÓW; Poland;Sławsk
52.1991299;18.15112;APTEKA PROPOLIS; 62-586; RZGÓW PIERWSZY; Poland;ulica Konińska 12
52.44363;18.46484;PUNKT APTECZNY ; 62-619; SADLNO; Poland;Sadlno 11
52.13621;16.00251;APTEKA  LEŚNA; 64-212; SIEDLEC; Poland;ulica Leśna 4A
52.38115;17.1633;APTEKA  LAWENDOWA; 62-025; SIEKIERKI WIELKIE; Poland;ulica Kościelna 1
52.65149;16.08134;APTEKA POD BIAŁYM ORŁEM; 64-410; SIERAKÓW; Poland;plac Powstańców Wielkopolskich 22
52.65092;16.07582;APTEKA SALIX; 64-410; SIERAKÓW; Poland;ulica Bolesława Chrobrego 12
52.6484;16.09102;APTEKA NOVA; 64-410; SIERAKÓW; Poland;ulica Wroniecka 9
51.6311899;18.02741;APTEKA; 63-405; SIEROSZEWICE; Poland;ulica Ostrowska 34B
52.67337;17.1589;APTEKA ŚW. ŁUKASZA; 62-085; SKOKI; Poland;ulica Wincentego Ciastowicza
52.67242;17.15825;POLO-APTEKA; 62-085; SKOKI; Poland;ulica Wągrowiecka 4B
52.39103;16.78351;APTEKA NASZA; 60-185; SKÓRZEWO; Poland;ulica Kwiatowa 37
52.38842;16.78287;APTEKA POGODNA; 60-185; SKÓRZEWO; Poland;ulica Poznańska 4
52.38843;16.7869;APTEKA ŹRÓDŁO; 60-185; SKÓRZEWO; Poland;ulica Poznańska
52.394612;16.7981631;APTEKA PHARMACIA; 60-185; SKÓRZEWO; Poland;ulica Poznańska 82
52.48216;18.33873;APTEKA  LIBRA; 62-560; SKULSK; Poland;ulica Włocławska
52.2546899;17.9708;PUNKT APTECZNY POD ZŁOTĄ WAGĄ; 62-400; SŁUPCA; Poland;Cienin Zaborny 51
52.28909;17.87361;APTEKA BLISKA 2; 62-400; SŁUPCA; Poland;plac Szkolny 16A
52.28801;17.87288;APTEKA POD MOŹDZIERZEM; 62-400; SŁUPCA; Poland;ulica 11 Listopada 12
52.29652;17.86912;APTEKA  DR. MAX; 62-400; SŁUPCA; Poland;ulica gen. Zygmunta Berlinga 15
52.28975;17.86736;APTEKA BLISKA; 62-400; SŁUPCA; Poland;ulica Kazimierza Pułaskiego 24A
52.2929699;17.87316;APTEKA HEUREKA; 62-400; SŁUPCA; Poland;ulica gen. Władysława Sikorskiego 1
52.29273;17.8749;APTEKA POD MOŹDZIERZEM; 62-400; SŁUPCA; Poland;ulica Romualda Traugutta 16
52.29206;17.87358;APTEKA POD ZŁOTĄ WAGĄ; 62-400; SŁUPCA; Poland;ulica Romualda Traugutta 7D
52.2871499;17.87315;APTEKA PRZY KOŚCIELE; 62-400; SŁUPCA; Poland;ulica Warszawska 11
52.28637;17.87629;APTEKA RODZINNA; 62-400; SŁUPCA; Poland;ulica Warszawska 16
51.24539;18.04438;PUNKT APTECZNY; 63-604; SŁUPIA POD KĘPNEM; Poland;ulica Szeroka 29A
52.25186;17.70737;PUNKT APTECZNY; 62-305; SOKOLNIKI; Poland;ulica Spokojna 4
52.3879;18.50324;APTEKA DARS; 62-610; SOMPOLNO; Poland;plac Wolności 16
52.3897;18.49811;APTEKA CENTRUM; 62-610; SOMPOLNO; Poland;ulica Spokojna
52.3897;18.49811;APTEKA  ALOES; 62-610; SOMPOLNO; Poland;ulica Spokojna
51.47077;17.63423;PUNKT APTECZNY; 63-435; SOŚNIE; Poland;ulica Janusza Korczaka 7
53.23068;16.68774;PUNKT APTECZNY; 64-932; STARA ŁUBIANKA; Poland;ulica Kościuszkowców 13
51.99663;16.5832799;APTEKA MELISA; 64-030; STARE BOJANOWO; Poland;ulica Główna 37
52.1855;18.22346;APTEKA ROSA; 62-571; STARE MIASTO; Poland;ulica Ogrodowa 31A
52.18197;18.21774;APTEKA PRIMA; 62-571; STARE MIASTO; Poland;ulica Olchowa 3
52.31279;18.35479;APTEKA DARS; 62-563; STARY LICHEŃ; Poland;ulica Konińska
51.91834;18.1108;APTEKA  MEDICAMEN; 62-820; STAWISZYN; Poland;plac Wolności 11
51.91828;18.10802;APTEKA RODZINNA; 62-820; STAWISZYN; Poland;ulica Starościńska
52.28489;16.70443;APTEKA POD SŁOŃCEM; 62-060; STĘSZEW; Poland;ulica ks. Wawrzyńca Chybickiego
52.27743;16.69033;APTEKA RODZINNA; 62-060; STĘSZEW; Poland;ulica Kościańska 54A
52.28104;16.70552;APTEKA U ZŁOTEGO ŹRÓDŁA; 62-060; STĘSZEW; Poland;ulica Poznańska 18
52.27959;16.70118;APTEKA POD ORŁEM; 62-060; STĘSZEW; Poland;ulica Poznańska 3
52.2533546;16.6149659;PUNKT APTECZNY ASPIRYNKA; 62-060; STRYKOWO; Poland;ulica Bukowska 56
52.31019;17.81059;APTEKA POD ZŁOTĄ WAGĄ; 62-420; STRZAŁKOWO; Poland;ulica Dworcowa
52.31144;17.81917;APTEKA WRZOSOWA; 62-420; STRZAŁKOWO; Poland;ulica gen. Władysława Sikorskiego 15
52.31112;17.81931;APTEKA PRZY POLOMARKECIE; 62-420; STRZAŁKOWO; Poland;ulica gen. Władysława Sikorskiego 16
51.5775999;17.96906;PUNKT APTECZNY LIPOWA; 63-405; STRZYŻEW; Poland;ulica Kolonia 72
52.47331;16.87856;APTEKA AWICENNA; 62-002; SUCHY LAS; Poland;ulica Wojciecha Bogusławskiego 8
52.47475;16.8795;APTEKA SUCHOLESKA; 62-002; SUCHY LAS; Poland;plac Nowy Rynek 6
52.47299;16.8758899;APTEKA ESKULAP; 62-002; SUCHY LAS; Poland;ulica Obornicka 85
52.1381963;17.3187331;APTEKA NA  ZDROWIE; 63-023; SULĘCINEK; Poland;ulica Szkolna 15B
51.60549;17.53953;APTEKA SULMIERZYCKA; 63-750; SULMIERZYCE; Poland;ulica Krótka 1
51.60673;17.5276299;NASZA APTEKA; 63-750; SULMIERZYCE; Poland;ulica Rynek 23
52.44141;16.74977;APTEKA SAGITTARIUS; 62-080; SWADZIM; Poland;ulica św. Antoniego
52.4196313;17.0795054;APTEKA OSIEDLOWA; 62-020; SWARZĘDZ; Poland;osiedle Kościuszkowców 13
52.3998;17.06295;APTEKA; 62-020; SWARZĘDZ; Poland;osiedle Edwarda Raczyńskiego 18
52.41354;17.08359;APTEKA POD LIPAMI; 62-020; SWARZĘDZ; Poland;osiedle Zygmunta III Wazy
52.40949;17.07505;APTEKA NASZA; 62-020; SWARZĘDZ; Poland;ulica Piaski 8
52.41019;17076;APTEKA ; 62-020; SWARZĘDZ; Poland;ulica Rynek 18
52.41522;17.08522;APTEKA MILLENIUM; 62-020; SWARZĘDZ; Poland;osiedle Dąbrowszczaków 26
52.4018;17.0577;APTEKA W PASAŻU; 62-020; SWARZĘDZ; Poland;ulica Graniczna 63
52.3966;17.07029;APTEKA ROSA; 62-020; SWARZĘDZ; Poland;ulica Kupiecka
52.40677;17.07073;APTEKA NASZA; 62-020; SWARZĘDZ; Poland;ulica Poznańska 17
52.40491;17.09752;APTEKA HEUREKA; 62-020; SWARZĘDZ; Poland;ulica Poznańska 6
52.40222;17.06903;APTEKA PRIMA; 62-020; SWARZĘDZ; Poland;ulica Tysiąclecia 17
52.41286;17.07757;APTEKA ZAMKOWA; 62-020; SWARZĘDZ; Poland;ulica Zamkowa
53.4674;16.60638;PUNKT APTECZNY ALOES ; 64-962; SYPNIEWO; Poland;ulica Adama Mickiewicza 43
53.02774;17.12362;APTEKA NA WZGÓRZU; 64-820; SZAMOCIN; Poland;ulica Górna
53.02941;17.12346;APTEKA PRZY RYNKU; 64-820; SZAMOCIN; Poland;ulica Rynek 2
53.02955;17.1241;APTEKA NOVA; 64-820; SZAMOCIN; Poland;ulica Rynek 8
52.6066;16.58409;APTEKA ŚW. MICHAŁA; 64-500; SZAMOTUŁY; Poland;ulica 3 Maja 4
52.61319;16.57798;APTEKA RODZINNA; 64-500; SZAMOTUŁY; Poland;ulica Braci Czeskich
52.58386;16.62741;APTEKA; 64-500; SZAMOTUŁY; Poland;ulica Dworcowa 16A
52.62045;16.57431;APTEKA; 64-500; SZAMOTUŁY; Poland;ulica Mikołaja Kopernika 3
52.6119013;16.5773788;APTEKA PANACEUM; 64-500; SZAMOTUŁY; Poland;ulica Kościelna 2
52.60476;16.58999;APTEKA OSIEDLOWA; 64-500; SZAMOTUŁY; Poland;ulica Łąkowa 9
52.61218;16.57966;APTEKA PRZYJAZNA; 64-500; SZAMOTUŁY; Poland;ulica Poznańska 1
52.60533;16.58688;APTEKA POD ZEGAREM; 64-500; SZAMOTUŁY; Poland;ulica Sportowa 17
52.6135499;16.5771799;APTEKA  POD  BASZTĄ; 64-500; SZAMOTUŁY; Poland;ulica Wroniecka 26
51.7079499;18.37765;PUNKT APTECZNY; 62-865; SZCZYTNIKI; Poland;plac Wolności 11
52.30209;17.01758;PUNKT APTECZNY ŚWIAT TANICH LEKÓW; 62-023; SZCZYTNIKI; Poland;ulica Jeziorna 9
51.86002;17.16287;PUNKT APTECZNY MEDICA; 63-820; SZELEJEWO DRUGIE; Poland;Szelejewo Drugie 2A
52.36591;18.30659;APTEKA DARS; 62-561; ŚLESIN; Poland;ulica Targowa
52.36999;18.3065049;APTEKA RODZINNA; 62-561; ŚLESIN; Poland;ulica Żwirki i Wigury 3
52.36906;18.3060699;APTEKA MEDICA; 62-561; ŚLESIN; Poland;ulica Żwirki i Wigury 18
52.01281;16.52602;APTEKA POD WAGAMI; 64-030; ŚMIGIEL; Poland;plac Rozstrzelanych 15
52.01344;16.52713;APTEKA; 64-030; ŚMIGIEL; Poland;ulica Tadeusza Kościuszki 2
52.01466;16.5219099;APTEKA ŚMIGIELSKA; 64-030; ŚMIGIEL; Poland;ulica Stanisława Skarżyńskiego 5A
52.01429;16.52114;APTEKA TARGOWA; 64-030; ŚMIGIEL; Poland;ulica Stanisława Skarżyńskiego 8
52.09545;17.02073;APTEKA POD BIAŁYM ORŁEM; 63-100; ŚREM; Poland;plac 20 Października 3
52.07756;17.01301;APTEKA CENTRUM; 63-100; ŚREM; Poland;ulica 1 Maja 23
52.0893;17.00711;APTEKA W SZPITALU; 63-100; ŚREM; Poland;ulica Józefa Chełmońskiego 1
52.08954;17.00519;APTEKA DBAM O ZDROWIE; 63-100; ŚREM; Poland;ulica Józefa Chełmońskiego 1A
52.07634;17.01385;APTEKA; 63-101; ŚREM; Poland;ulica Dezyderego Chłapowskiego 5
52.08298;17.00627;APTEKA PROFILAKTYKA V; 63-100; ŚREM; Poland;ulica Fryderyka Chopina
52.08243;17.02661;APTEKA POLONIA; 63-100; ŚREM; Poland;ulica Gostyńska 17
52.08087;17.01029;APTEKA PRZYJAZNA; 63-100; ŚREM; Poland;ulica Grunwaldzka 8C
52.08268;17.01016;APTEKA NA ZDROWIE; 63-100; ŚREM; Poland;ulica Jana Kilińskiego 30
52.09343;17.01856;APTEKA NAD WARTĄ; 63-100; ŚREM; Poland;ulica ks. Jerzego Popiełuszki 2
52.08979;17.01667;APTEKA DBAM O ZDROWIE; 63-100; ŚREM; Poland;ulica Adama Mickiewicza 6
52.0830399;17.00478;APTEKA HELENKI; 63-100; ŚREM; Poland;ulica Ignacego Paderewskiego 1
52.08762;17.0184399;APTEKA; 63-100; ŚREM; Poland;ulica Powstańców Wielkopolskich 5
52.0825;17.01358;APTEKA PROFILAKTYKA; 63-100; ŚREM; Poland;ulica Władysława S. Reymonta 2A
52.07719;17.02755;APTEKA ODLEWNIK; 63-100; ŚREM; Poland;ulica Stanisława Staszica 1
52.22967;17.27739;APTEKA POD SŁOŃCEM; 63-000; ŚRODA WIELKOPOLSKA; Poland;plac Armii Poznań 3
52.2245599;17.27642;APTEKA RODZINNA; 63-000; ŚRODA WIELKOPOLSKA; Poland;ulica 20 Października 36A
52.2261575;17.2748432;APTEKA W POLOMARKECIE; 63-000; ŚRODA WIELKOPOLSKA; Poland;ulica 20 Października 15
52.22782;17.28323;APTEKA ESKULAP; 63-000; ŚRODA WIELKOPOLSKA; Poland;ulica Czerwonego Krzyża 2A
52.22871;17.28032;APTEKA POD SŁOŃCEM; 63-000; ŚRODA WIELKOPOLSKA; Poland;ulica Czerwonego Krzyża 12
52.22676;17.28124;APTEKA POD ZŁOTĄ WAGĄ; 63-000; ŚRODA WIELKOPOLSKA; Poland;ulica Jana Henryka Dąbrowskiego 39
52.22927;17.26988;APTEKA NOVA; 63-000; ŚRODA WIELKOPOLSKA; Poland;ulica marsz. Józefa Piłsudskiego 1A
52.23111;17.2692;APTEKA POD SŁOŃCEM; 63-000; ŚRODA WIELKOPOLSKA; Poland;ulica Jana Kilińskiego 33
52.22493;17.2719099;APTEKA ŚW. JÓZEFA; 63-000; ŚRODA WIELKOPOLSKA; Poland;ulica Poselska 18
52.22612;17.2729399;APTEKA DBAM O ZDROWIE; 63-000; ŚRODA WIELKOPOLSKA; Poland;ulica Przecznica 2
52.2284099;17.27675;APTEKA ŚRÓDMIEJSKA 2; 63-000; ŚRODA WIELKOPOLSKA; Poland;ulica Spichrzowa 3
52.22886;17.27599;APTEKA DBAM O ZDROWIE; 63-000; ŚRODA WIELKOPOLSKA; Poland;plac Stary Rynek 2
52.22645;17.28544;APTEKA MEDICA; 63-000; ŚRODA WIELKOPOLSKA; Poland;ulica Żwirki i Wigury 3C
52.22987;16.95029;APTEKA QUERCUS; 62-022; ŚWIĄTNIKI; Poland;ulica Kórnicka 8C
51.85518;16.49448;APTEKA W RYNKU; 64-115; ŚWIĘCIECHOWA; Poland;Rynek
51.85628;16.5055799;APTEKA ARNIKA; 64-115; ŚWIĘCIECHOWA; Poland;ulica Strzelecka 6
51.85593;17.76197;PUNKT APTECZNY; 63-300; TACZANÓW DRUGI; Poland;Taczanów Drugi 1B
52.46752;16.65807;APTEKA ŚW. TOMASZA; 62-080; TARNOWO PODGÓRNE; Poland;ulica 23 Października
52.46451;16.66356;APTEKA TARNOWSKA; 62-080; TARNOWO PODGÓRNE; Poland;ulica Poznańska 82B
52.469;16.65929;APTEKA POD ORŁEM; 62-080; TARNOWO PODGÓRNE; Poland;ulica Sportowa
53.33904;16.85176;PUNKT APTECZNY TARNÓWKA; 77-416; TARNÓWKA; Poland;ulica Niepodległości 22A
51.75488;18.16595;PUNKT APTECZNY VALEO; 62-860; TŁOKINIA KOŚCIELNA; Poland;ulica Kościelna 14
52.14149;17.95483;APTEKA ARS FARMACEUTICA; 62-410; TRĄBCZYN; Poland;Trąbczyn 53
53.0404;16.4613799;APTEKA POD JASKÓŁKĄ; 64-980; TRZCIANKA; Poland;osiedle XXV-lecia 3
53.04213;16.4617;APTEKA PRZY RYNKU; 64-980; TRZCIANKA; Poland;plac Pocztowy 3
53.0382714;16.4546256;APTEKA PRZYJAZNA; 64-980; TRZCIANKA; Poland;ulica Władysława Broniewskiego 17A
53.04023;16.46239;APTEKA REMEDIUM; 64-980; TRZCIANKA; Poland;ulica Tadeusza Kościuszki 1
53.03493;16.46315;APTEKA ALFA; 64-980; TRZCIANKA; Poland;ulica Jana Matejki 3A
52.9853838;16.3785728;PUNKT APTECZNY FACTUM; 64-980; TRZCIANKA; Poland;Siedlisko 35
53.03687;16.46069;APTEKA POD ZŁOTYM LWEM; 64-980; TRZCIANKA; Poland;ulica Stanisława Staszica 12
51.19316;18.01963;APTEKA REMEDIUM; 63-620; TRZCINICA; Poland;ulica Szkolna 4
52.56141;17.82147;APTEKA DBAM O ZDROWIE; 62-240; TRZEMESZNO; Poland;plac Jana Kilińskiego 5
52.5588;17.81906;APTEKA HIBISKUS; 62-240; TRZEMESZNO; Poland;ulica Adama Mickiewicza 2
52.56324;17.82937;APTEKA ASPIRYNKA; 62-240; TRZEMESZNO; Poland;ulica Piastowska 2
52.3429;17.07677;PUNKT APTECZNY TULCE; 63-004; TULCE; Poland;ulica Poznańska 21
52.07668;18.29754;APTEKA POD KOZIOROŻCEM; 62-740; TULISZKÓW; Poland;plac Wolności 14
52.07703;18.29862;APTEKA POD KOZIOROŻCEM II; 62-740; TULISZKÓW; Poland;plac Wolności 19
52.07764;18.29297;APTEKA FLORIAŃSKA; 62-740; TULISZKÓW; Poland;plac Floriański 3
52.01769;18.50471;APTEKA; 62-700; TUREK; Poland;aleja Józefa Piłsudskiego 1
52.01221;18.51773;APTEKA VITAFARM 2; 62-700; TUREK; Poland;osiedle Wyzwolenia 2A
52.01591;18.50181;APTEKA STYLOWA; 62-700; TUREK; Poland;plac Wojska Polskiego 8
52.01577;18.51042;APTEKA MEDICATA; 62-700; TUREK; Poland;ulica Armii Krajowej 1
52.01043;18.49383;APTEKA STARS; 62-700; TUREK; Poland;ulica Braci Marszlów 4
52.01373;18.50768;APTEKA POD TUREM; 62-700; TUREK; Poland;ulica Jarosława Dąbrowskiego 7
52.01558;18.4979;APTEKA POD TUREM; 62-700; TUREK; Poland;ulica Kaliska 18
52.01938;18.49552;APTEKA  KWIATY POLSKIE; 62-700; TUREK; Poland;ulica Stanisława Kączkowskiego 12
52.01663;18.50572;APTEKA PRIMA; 62-700; TUREK; Poland;ulica Kolska 28
52.01731;18.5069;APTEKA PRIMA; 62-700; TUREK; Poland;ulica Kolska Szosa 3
52.01546;18.46884;APTEKA ALBA; 62-700; TUREK; Poland;ulica Konińska 24
52.01599;18.50602;APTEKA W PAWILONIE; 62-700; TUREK; Poland;ulica Legionów Polskich 2
52.01599;18.50602;APTEKA STYLOWA 2; 62-700; TUREK; Poland;ulica Legionów Polskich 2
52.0118;18.4891599;APTEKA PRIMA; 62-700; TUREK; Poland;ulica Łąkowa 3
52.01137;18.51056;APTEKA NASZE LEKI; 62-700; TUREK; Poland;ulica Nowa 22
52.05813;16.82993;PUNKT APTECZNY ZŁOTY LEK ; 64-000; TUREW; Poland;ulica Szkolna
53.0528392;16.7334654;APTEKA; 64-850; UJŚCIE; Poland;plac Wiosny Ludów 6
53.05314;16.73119;APTEKA PAPROTKA; 64-850; UJŚCIE; Poland;ulica Czarnkowska 7
52.9052067;17.4768988;PUNKT APTECZNY SOLANKA; 62-120; WAPNO; Poland;ulica Karola Świerczewskiego 6
52.80785;17.22976;APTEKA KWIATY POLNE; 62-100; WĄGROWIEC; Poland;ulica 11 Listopada 1
52.8086;17.18413;APTEKA ŚW. ANTONIEGO; 62-100; WĄGROWIEC; Poland;ulica Bobrownicka 3
52.81338;17.20826;APTEKA 112; 62-100; WĄGROWIEC; Poland;ulica Jana Kasprowicza 52
52.8082;17.20261;APTEKA; 62-100; WĄGROWIEC; Poland;ulica Kolejowa 9
52.80952;17.19846;APTEKA FARMED; 62-100; WĄGROWIEC; Poland;ulica Tadeusza Kościuszki 5
52.81592;17.20498;APTEKA POD WAGĄ; 62-100; WĄGROWIEC; Poland;ulica Adama Mickiewicza 33
52.81807;17.21086;APTEKA CENTRUM ZDROWIA; 62-100; WĄGROWIEC; Poland;ulica Mikołaja Reja 59
52.81055;17.2130699;APTEKA PANACEUM; 62-100; WĄGROWIEC; Poland;ulica Przemysłowa 38
52.80972;17.20811;APTEKA; 62-100; WĄGROWIEC; Poland;ulica Przemysłowa
52.81348;17.20385;APTEKA ARNIKA; 62-100; WĄGROWIEC; Poland;ulica Średnia 30
52.80541;17.22097;APTEKA BURSZTYNOWA; 62-100; WĄGROWIEC; Poland;ulica Feliksa Tylmana 24
52.80881;16.1746;PUNKT APTECZNY MELISA; 64-730; WIELEŃ; Poland;ulica Powstańców Wielkopolskich 21
52.89411;16.17132;APTEKA ŚRÓDMIEJSKA; 64-730; WIELEŃ; Poland;ulica Tadeusza Kościuszki 14
52.89588;16.17189;APTEKA SANITAS; 64-730; WIELEŃ; Poland;ulica Tadeusza Kościuszki 74
52.87876;16.17564;APTEKA STORCZYKOWA; 64-730; WIELEŃ; Poland;ulica Storczykowa
52.11981;16.35179;APTEKA ELIKSIR; 64-050; WIELICHOWO; Poland;ulica Grodziska 33
52.11546;16.35187;APTEKA ZDROWIE; 64-050; WIELICHOWO; Poland;ulica Rynek 3
51.5979;18.0869;APTEKA; 63-405; WIELOWIEŚ; Poland;ulica Słoneczna 5
51.92262;16.21328;PUNKT APTECZNY ARNIKA ; 64-150; WIJEWO; Poland;ulica Okrężna 18
51.91868;16.18568;APTEKA WIJEWSKA; 64-150; WIJEWO; Poland;ulica 25 Maja 5A
52.48856;18.16129;APTEKA  LAWENDA; 62-550; WILCZYN; Poland;ulica Karolkowa 7
52.48599;18.16409;PUNKT APTECZNY VITA; 62-550; WILCZYN; Poland;ulica Strzelińska 12
51.88597;16.53492;PUNKT APTECZNY DWOREK WILKOWICE; 64-115; WILKOWICE; Poland;ulica Tylna
52.00877;17.54347;PUNKT APTECZNY RUMIANEK; 63-200; WILKOWYJA; Poland;ulica Powstańców Wielkopolskich 60
52.3194;16.85408;APTEKA JAŚMINOWA; 62-051; WIRY; Poland;ulica Komornicka 192
51.94037;17.55942;APTEKA PANACEUM; 63-230; WITASZYCE; Poland;ulica Ceglana 5A
52.4394475;17.7695163;APTEKA W POLOMARKECIE; 62-430; WITKOWO; Poland;ulica Jana Pawła II 1A
52.4367807;17.7706889;APTEKA RODZINNA; 62-230; WITKOWO; Poland;ulica Jana Pawła II 23
52.43866;17.77287;APTEKA; 62-230; WITKOWO; Poland;ulica Poznańska 18
52.43973;17.77376;APTEKA; 62-230; WITKOWO; Poland;ulica Warszawska 2
52.1031;18.47147;APTEKA GRODZKA; 62-710; WŁADYSŁAWÓW; Poland;ulica Kaliska 2A
52.10381;18.47291;APTEKA; 62-710; WŁADYSŁAWÓW; Poland;ulica Rynek 28
51.92624;16.3617;APTEKA NOWA; 64-140; WŁOSZAKOWICE; Poland;plac 21 Października
51.93173;16.35915;APTEKA RÓŻANA; 64-140; WŁOSZAKOWICE; Poland;ulica Zalesie 11
52.11246;16.1102;APTEKA POD WAGĄ; 64-200; WOLSZTYN; Poland;plac Tadeusza Kościuszki
52.11589;16.1095;APTEKA; 64-200; WOLSZTYN; Poland;ulica 5 Stycznia 18
52.05664;16.1508;APTEKA DBAM O ZDROWIE; 64-200; WOLSZTYN; Poland;ulica Dworcowa 5
52.05681;16.15118;APTEKA PRZY DWORCU; 64-200; WOLSZTYN; Poland;ulica Dworcowa 7
52.11301;16.11722;APTEKA MEDYCZNA; 64-200; WOLSZTYN; Poland;ulica Gajewskich 1
52.1165499;16.1247;APTEKA ESKULAP; 64-200; WOLSZTYN; Poland;ulica Garbarska 10
52.11722;16.11553;APTEKA PARKOWA; 64-200; WOLSZTYN; Poland;ulica Poznańska 32
52.11367;16.10991;APTEKA ESKULAP; 64-200; WOLSZTYN; Poland;ulica Słodowa 9
52.10956;16.1185699;APTEKA HYGEA; 64-200; WOLSZTYN; Poland;ulica Juliusza Słowackiego 18
52.11569;16.11798;APTEKA CENTRUM ZDROWIA; 64-200; WOLSZTYN; Poland;ulica Strzelecka 7
52.0444546;16.1051642;APTEKA HYGEA; 64-200; WOLSZTYN; Poland;ulica Wodna 5
52.7109499;16.38624;APTEKA ARNICA; 64-510; WRONKI; Poland;ulica Adama Mickiewicza 47
52.70888;16.3832999;APTEKA SŁONECZNA; 64-510; WRONKI; Poland;ulica Partyzantów
52.70852;16.37663;APTEKA U ZŁOTEGO ŹRÓDŁA; 64-510; WRONKI; Poland;ulica Poznańska 30
52.70989;16.37486;APTEKA POD ORŁEM; 64-510; WRONKI; Poland;ulica Rynek 6
52.26254;18.6818;PUNKT APTECZNY TWOJE LEKI; 62-600; WRZĄCA WIELKA; Poland;Wrząca Wielka 45
52.32418;17.58323;APTEKA RODZINNA; 62-300; WRZEŚNIA; Poland;ulica Bolesława Chrobrego 17
52.32313;17.58393;APTEKA KAPSUŁKA; 62-300; WRZEŚNIA; Poland;ulica Bolesława Chrobrego 10
52.31504;17.5656;APTEKA NA SŁAWNIE; 62-300; WRZEŚNIA; Poland;ulica Fromborska 46A
52.33039;17.57226;APTEKA VERBENA; 62-300; WRZEŚNIA; Poland;ulica Kosynierów 23
52.32445;17.5748;APTEKA WITAMINKA; 62-300; WRZEŚNIA; Poland;ulica Legii Wrzesińskiej 11
52.32258;17.56291;APTEKA DR. MAX; 62-300; WRZEŚNIA; Poland;ulica Miłosławska 10
52.3224;17.57034;APTEKA KWIATY POLSKIE; 62-300; WRZEŚNIA; Poland;ulica Opieszyn 10
52.33096;17.54173;APTEKA W POLOMARKECIE; 62-300; WRZEŚNIA; Poland;ulica Ignacego Paderewskiego 52
52.32192;17589;APTEKA AMIKA; 62-300; WRZEŚNIA; Poland;ulica Piastów 16
52.32407;17.56651;APTEKA NOWA; 62-300; WRZEŚNIA; Poland;ulica Henryka Sienkiewicza 12
52.32457;17.56612;APTEKA ASPIRYNKA S.C.; 62-300; WRZEŚNIA; Poland;ulica Henryka Sienkiewicza 20
52.32401;17.56619;APTEKA STYLOWA; 62-300; WRZEŚNIA; Poland;ulica Henryka Sienkiewicza 7
52.32524;17.57439;APTEKA DBAM O ZDROWIE; 62-300; WRZEŚNIA; Poland;ulica Juliusza Słowackiego 4A
53.15313;17.2687199;APTEKA HIPOKRATES; 89-300; WYRZYSK; Poland;plac Wojska Polskiego 14
53.15258;17.26869;APTEKA POD ZŁOTYM LWEM; 89-300; WYRZYSK; Poland;plac Wojska Polskiego 21
53.15519;17.26398;APTEKA VITRUM; 89-300; WYRZYSK; Poland;ulica Przy Stawie
53.18154;17.07947;APTEKA; 89-320; WYSOKA; Poland;plac Powstańców Wielkopolskich 15
53.18155;17.07826;APTEKI ARNIKA; 89-320; WYSOKA; Poland;ulica Strzelecka 1A
52.13714;18.40355;PUNKT APTECZNY RÓŻA; 62-710; WYSZYNA; Poland;ulica Jana Pawła II 20A
52.8910399;16.85818;PUNKT APTECZNY POD JARZĘBINAMI; 64-834; WYSZYNY; Poland;Wyszyny 22
52.16801;17.90239;APTEKA; 62-410; ZAGÓRÓW; Poland;ulica Duży Rynek 34
52.168;17.89928;APTEKA POD ZŁOTĄ WAGĄ; 62-410; ZAGÓRÓW; Poland;ulica Mały Rynek 1O
52.16851;17.89461;APTEKA FAMILIJNA; 62-410; ZAGÓRÓW; Poland;ulica Pyzderska 6A
53.4108801;17.1520657;APTEKA  REMEDIUM; 77-424; ZAKRZEWO; Poland;ulica Edmunda Jana Osmańczyka 7
52.15578;17.16129;APTEKA  MAGDALENKA; 63-020; ZANIEMYŚL; Poland;ulica Poznańska 6
52.15742;17.16395;APTEKA; 63-020; ZANIEMYŚL; Poland;ulica Henryka Sienkiewicza 6
52.43385;18.64048;PUNKT APTECZNY APIS; 62-618; ZARYŃ; Poland;Mąkoszyn 51
52.2545;15.9074;APTEKA REMEDIA; 64-360; ZBĄSZYŃ; Poland;ulica 17 Stycznia 1920 r. 59B
52.2528;15.9099;APTEKA POD ANIOŁEM; 64-360; ZBĄSZYŃ; Poland;ulica 17 Stycznia 1920 r. 68
52.25034;15.92117;APTEKA; 64-360; ZBĄSZYŃ; Poland;Rynek 4
52.24977;15.92171;APTEKA SALUS; 64-360; ZBĄSZYŃ; Poland;ulica Senatorska 27
52.24993;15.92179;APTEKA PRZYJAZNA; 64-360; ZBĄSZYŃ; Poland;ulica Senatorska 30
51.95301;18.1334899;PUNKT APTECZNY POD LWEM; 62-830; ZBIERSK; Poland;Zbiersk-Cukrownia 143
51.95052;18.14026;PUNKT APTECZNY REMEDIUM; 62-830; ZBIERSK; Poland;Zbiersk-Cukrownia 65A
51.64737;17.36839;APTEKA ALIFARM - BIS; 63-760; ZDUNY; Poland;osiedle Madalińskiego 1A
51.64605;17.37805;APTEKA; 63-760; ZDUNY; Poland;Rynek 19
52.47939;16.85585;APTEKA POD LASEM; 62-002; ZŁOTNIKI; Poland;plac Grzybowy 7
53.36079;17.04286;APTEKA ŚW. KOSMY I DAMIANA; 77-400; ZŁOTÓW; Poland;ulica Bohaterów Westerplatte 7B
53.35848;17.04882;APTEKA CENTRUM ZDROWIA; 77-400; ZŁOTÓW; Poland;ulica Nieznanego Żołnierza
53.36016;17.03528;APTEKA MALWA; 77-400; ZŁOTÓW; Poland;ulica Spichrzowa 42
53.36013;17.04388;APTEKA; 77-400; ZŁOTÓW; Poland;ulica Bohaterów Westerplatte 12
53.3715;17.01961;APTEKA  LEŚNA; 77-400; ZŁOTÓW; Poland;ulica Wielatowska 10
51.85013;18.17507;PUNKT APTECZNY; 62-817; ŻELAZKÓW; Poland;Żelazków 109
51.8534099;18.17842;PUNKT APTECZNY VITA; 62-817; ŻELAZKÓW; Poland;Żelazków 134C
52.0656899;17563;APTEKA NOVA; 63-210; ŻERKÓW; Poland;ulica Jarocińska 15B
52.06832;17.5641399;APTEKA STRÓŻYKOWIE; 63-210; ŻERKÓW; Poland;ulica Rynek 7G
52.18235;18.27152;PUNKT APTECZNY FIOŁEK; 62-571; ŻYCHLIN; Poland;osiedle Słoneczne
52.45308;17.5831;APTEKA ZDRÓWKO; 62-241; ŻYDOWO; Poland;ulica Tadeusza Kościuszki